geometry_type,latitude,longitude,global_id,name,category,sub_type,management,education,poi_type,number_of_teachers,number_of_students,ward_code,source,ward_name,lga_code,lga_name,state_code,state_name,lon,lat,alternate_name
POINT,11.136512050000022,7.726031930000033,001089a3-626b-44e6-a282-c53f2dba1ddc,Integrated Children School,Primary,Standard,Private,Formal,School,,,KD1904,NMIS,Dogarawa,19019,Sabon Gari,KD,Kaduna,7.726031930000033,11.136512050000022,
POINT,11.281145811000044,8.012568355000042,00114656-47d7-460b-b93b-1e2069b2cf14,Universal Basic Education Anguwan Sariki Primary School,Primary,Primary,Public,Formal,School,,,KD1805,NMIS,Gubuchi,19018,Makarfi,KD,Kaduna,8.012568355000042,11.281145811000044,
POINT,9.788480221000043,8.312321090000069,0042093b-2452-484a-8fab-ac85a077a096,Baptist Mission Academy,Secondary,Aggregate,Faith Based,Formal,School,,,KD2210,NMIS,Zonkwa,19022,Zangon Kataf,KD,Kaduna,8.312321090000069,9.788480221000043,
POINT,9.791044594000027,7.897018790000061,00500548-aa3d-4d87-bcbc-eb7a8400c5c2,Universal Basic Education Primary School Ungwan Atiku,Primary,Primary,Public,Formal,School,,,KD0802,NMIS,Ankwa,19008,Kachia,KD,Kaduna,7.897018790000061,9.791044594000027,
POINT,11.437386440000068,7.994740530000058,0051423a-66fa-4313-b3ec-f92a60035801,LGEA Angwan Halliru Primary School,Primary,Primary,Public,Formal,School,,,KD0508,NMIS,Rumi,19005,Ikara,KD,Kaduna,7.994740530000058,11.437386440000068,
POINT,10.76374252100004,7.781618320000064,00598bb6-acff-42ea-9cad-8438eded090c,Kwan Kwani Primary School,Primary,Primary,Public,Formal,School,,,KD0405,NMIS,Igabi,19004,Igabi,KD,Kaduna,7.781618320000064,10.76374252100004,
POINT,10.431035761000032,7.395912409000061,0071fc1c-69ed-4e8e-8b0b-082b94c78555,LGEA Primary School Gonin Gora,Primary,Standard,Public,Formal,School,,,KD0203,NMIS,Kakau,19002,Chikun,KD,Kaduna,7.395912409000061,10.431035761000032,
POINT,10.510001020000061,7.4384200500000475,00b433bb-1d06-4d52-bd96-ac9fa400c977,LGEA Sabon Gari Primary School,Primary,Standard,Public,Formal,School,,,KD0904,NMIS,Kabala,19009,Kaduna North,KD,Kaduna,7.4384200500000475,10.510001020000061,
POINT,9.228846410000074,8.495198620000053,00b741eb-2d74-44f8-ae3b-c7bab90dd607,LGEA Nandu B,Primary,Primary,Public,Formal,School,,,KD2007,NMIS,Nandu,19020,Sanga,KD,Kaduna,8.495198620000053,9.228846410000074,
POINT,9.73552483100002,7.81010955000005,00c032f2-db85-4ac3-ae09-de6b913798c0,Universal Basic Education Akwaya Daji,Primary,Primary,Public,Formal,School,,,KD0803,NMIS,Awon,19008,Kachia,KD,Kaduna,7.81010955000005,9.73552483100002,
POINT,11.194646531000046,7.6109976400000505,00c2559c-5e8f-4505-bd9e-bca943324a8e,LEA Primary School Hayin Sambo,Primary,Primary,Public,Formal,School,,,KD1902,NMIS,Bomo,19019,Sabon Gari,KD,Kaduna,7.6109976400000505,11.194646531000046,
POINT,11.25238599100004,7.267851160000021,00c4c759-c3a1-4ec6-a80a-e0bf032fd8ba,LGEA Primary School Anguwan Namama,Primary,Primary,Public,Formal,School,,,KD0305,NMIS,Idasu,19003,Giwa,KD,Kaduna,7.267851160000021,11.25238599100004,
POINT,9.576982857000075,7.786431313000037,00c7286a-a1a2-49e1-80bb-7544d88ca889,Universal Basic Education Primary School Cikin Gari Kuchi,Primary,Primary,Public,Formal,School,,,KD1110,NMIS,Kushe,19011,Kagarko,KD,Kaduna,7.786431313000037,9.576982857000075,
POINT,9.71161206100004,8.324108870000032,00c8f1e9-de98-461f-b96e-070cc36ace8b,LGEA Aduwuan Gida,Primary,Standard,Public,Formal,School,,,KD2205,NMIS,Madakiya,19022,Zangon Kataf,KD,Kaduna,8.324108870000032,9.71161206100004,
POINT,9.515045286000031,7.696963549000031,00cddd3f-7b1d-427c-b061-2156da5cece8,Universal Basic Education Primary School Kago,Primary,Primary,Public,Formal,School,,,KD1106,NMIS,Kagarko South,19011,Kagarko,KD,Kaduna,7.696963549000031,9.515045286000031,
POINT,11.183338481000021,7.725193980000029,00ec9d11-8596-43f6-8644-9ad180976a8d,LEA Primary School Sakadadi,Primary,Primary,Public,Formal,School,,,KD1904,NMIS,Dogarawa,19019,Sabon Gari,KD,Kaduna,7.725193980000029,11.183338481000021,
POINT,10.67155998100003,6.2868517100000645,00f27779-eb1b-47c0-86b7-72f86c846ca3,L G Ae Chikwarba Primary School,Primary,Primary,Public,Formal,School,,,KD0102,NMIS,Kakangi,19001,Birnin Gwari,KD,Kaduna,6.2868517100000645,10.67155998100003,
POINT,9.730775357000027,8.013818264000065,00f36d3c-8755-4aee-af7b-20eeb89ea3b8,Universal Basic Education Boham Primary School,Primary,Primary,Public,Formal,School,,,KD0806,NMIS,Gidan Tagwai,19008,Kachia,KD,Kaduna,8.013818264000065,9.730775357000027,
POINT,10.517467261000036,7.436955571000055,0111dc14-c426-4bb9-9261-ec6a21be3539,2nd Ecwa Nursery and Primary School,Primary,Standard,Private,Formal,School,,,KD0904,NMIS,Kabala,19009,Kaduna North,KD,Kaduna,7.436955571000055,10.517467261000036,
POINT,10.477677490000076,7.442287490000069,013913b3-3a25-4b9b-ae10-b86295b9d733,Christ Mission Academy,Secondary,Aggregate,Private,Formal,School,,,KD0207,NMIS,Narayi,19002,Chikun,KD,Kaduna,7.442287490000069,10.477677490000076,
POINT,10.051727451000033,8.552953140000056,0149ba03-1e9b-4cac-9485-36b1d64c540e,Universal Basic Education Primaru School Talon Amawa,Primary,Primary,Public,Formal,School,,,KD1703,NMIS,Garu Mariri,19017,Lere,KD,Kaduna,8.552953140000056,10.051727451000033,
POINT,10.474360001000036,7.449835000000064,015bdd68-8ba7-4d4f-b01f-ffc9b37b6967,Sacret Heart Nur Primary and Secondary School,Secondary,Aggregate,Faith Based,Formal,School,,,KD0207,NMIS,Narayi,19002,Chikun,KD,Kaduna,7.449835000000064,10.474360001000036,
POINT,11.066574450000076,8.03468048600007,017872ba-16a9-45e3-aa26-54fa378006a6,Universal Basic Education Gidan Kori,Primary,Primary,Public,Formal,School,,,KD2110,NMIS,Turawa,19021,Soba,KD,Kaduna,8.03468048600007,11.066574450000076,
POINT,10.569947381000077,7.4449012500000435,0198569b-3b65-492e-87e9-1e28b2eed38f,Demostration Nursry and Primary School,Primary,Standard,Public,Formal,School,,,KD0909,NMIS,Unguwan Dosa,19009,Kaduna North,KD,Kaduna,7.4449012500000435,10.569947381000077,
POINT,9.70559576100004,8.251770820000047,01b994d1-0913-4401-8190-a3bb6ec75198,Universal Basic Education Primary School Hurgyam,Primary,Primary,Public,Formal,School,,,KD2205,NMIS,Madakiya,19022,Zangon Kataf,KD,Kaduna,8.251770820000047,9.70559576100004,
POINT,10.09589500100003,8.284690000000069,01d81816-90cf-4103-9091-c5e12ac38be0,Model Kusheka,Primary,Primary,Public,Formal,School,,,KD1402,NMIS,Bital,19014,Kauru,KD,Kaduna,8.284690000000069,10.09589500100003,
POINT,9.37102675400007,8.281701207000026,01de8fe1-96ec-4ce8-96f1-c2fcf84360b2,LGEA Dangwa,Primary,Primary,Public,Formal,School,,,KD0706,NMIS,Jagindi,19007,Jema'A,KD,Kaduna,8.281701207000026,9.37102675400007,
POINT,9.60093498200007,8.052742481000053,01e7e1e1-3a40-40a1-aa5c-a94ddd943f54,Government Secondary School Antong,Secondary,Junior,Public,Formal,School,,,KD0810,NMIS,Kurmin Musa,19008,Kachia,KD,Kaduna,8.052742481000053,9.60093498200007,
POINT,10.499170001000039,7.38727833300004,01f1bede-ac51-4f8f-ab51-adaf73846ba8,Katari Schools,Secondary,Aggregate,Private,Integrated,School,,,KD1011,NMIS,Sabon Gari West,19010,Kaduna South,KD,Kaduna,7.38727833300004,10.499170001000039,
POINT,9.32262361100004,7.9179292920000535,01f56517-1f5c-4768-8b49-3376cd907440,LGEA Primary School Idar,Primary,Primary,Public,Formal,School,,,KD0606,NMIS,Nduya,19006,Jaba,KD,Kaduna,7.9179292920000535,9.32262361100004,
POINT,9.433338581000044,8.160135690000061,01f6f160-7b6c-4883-9dc5-3a6201225459,Gdlss Asso,Secondary,Standard,Public,Formal,School,,,KD0701,NMIS,Asso,19007,Jema'A,KD,Kaduna,8.160135690000061,9.433338581000044,
POINT,9.767461791000073,8.319368290000057,02169822-6bf5-41a3-a47a-431398a5ade9,LGEA Madauchi 1,Primary,Standard,Public,Formal,School,,,KD2210,NMIS,Zonkwa,19022,Zangon Kataf,KD,Kaduna,8.319368290000057,9.767461791000073,
POINT,10.624093280000068,7.470792550000056,02334e3b-cdec-4f36-9ea6-246cb9b855e5,Nti Model Staff Primary School,Primary,Primary,Public,Formal,School,,,KD0408,NMIS,Rigachikun,19004,Igabi,KD,Kaduna,7.470792550000056,10.624093280000068,
POINT,11.333422061000022,7.924822569000071,02458d9e-87a0-4e86-99b1-b4af1ec1ec4c,Government Junior Secondary School Gimi,Secondary,Junior,Public,Formal,School,,,KD1804,NMIS,Gimi,19018,Makarfi,KD,Kaduna,7.924822569000071,11.333422061000022,
POINT,11.127101180000068,8.100839853000025,024f7c02-097a-4495-824e-357cf0fd0f4e,LEA Makwaron Lemo,Primary,Primary,Public,Formal,School,,,KD2110,NMIS,Turawa,19021,Soba,KD,Kaduna,8.100839853000025,11.127101180000068,
POINT,11.367800931000033,8.025249950000045,027315c3-eafb-4fb2-8595-215334aaafe6,LGEA Rumi Primary School,Primary,Standard,Public,Formal,School,,,KD0508,NMIS,Rumi,19005,Ikara,KD,Kaduna,8.025249950000045,11.367800931000033,
POINT,10.572189731000037,7.438211390000049,0276faad-f347-44fb-bac6-9d7dd9844c7e,Army Children SchoolNew Cantonment B,Primary,Standard,Public,Formal,School,,,KD0903,NMIS,Hayin Banki,19009,Kaduna North,KD,Kaduna,7.438211390000049,10.572189731000037,
POINT,9.575677081000038,8.282498060000023,02813300-4d6d-4a4a-ba48-0c75d070cfd8,Grace Land Academy Katsit Kanfancha,Secondary,Aggregate,Private,Formal,School,,,KD0707,NMIS,Kafanchan A,19007,Jema'A,KD,Kaduna,8.282498060000023,9.575677081000038,
POINT,10.400387050000063,7.495708440000044,0293761b-cba7-46ce-a5b8-a29ce5677901,LGEA Rido,Primary,Standard,Public,Formal,School,,,KD0209,NMIS,Rido,19002,Chikun,KD,Kaduna,7.495708440000044,10.400387050000063,
POINT,9.597454951000032,8.283320610000033,02a4b03f-dac9-4ea7-a3bb-fb1a35304eb2,LGEA Primary School Zakwo,Primary,Primary,Public,Formal,School,,,KD2201,NMIS,Gidan Jatau,19022,Zangon Kataf,KD,Kaduna,8.283320610000033,9.597454951000032,
POINT,9.749459625000043,7.6438289880000525,02ada5bd-1919-4078-9650-2c303555c692,LGEA Kurmin Ajiya,Primary,Primary,Public,Formal,School,,,KD0803,NMIS,Awon,19008,Kachia,KD,Kaduna,7.6438289880000525,9.749459625000043,
POINT,10.595954061000043,7.405434251000031,02b95e0a-9655-4d7f-ae1f-ec74a2caa113,Government Secondary School Sabon Afaka,Secondary,Junior,Public,Formal,School,,,KD0401,NMIS,Afaka,19004,Igabi,KD,Kaduna,7.405434251000031,10.595954061000043,
POINT,11.059160471000041,7.401557510000032,02c68656-68b9-45d1-ac7c-3c4fab21c52b,Government Junior Secondary School Iyatawa,Secondary,Junior,Public,Formal,School,,,KD0307,NMIS,Kidandan,19003,Giwa,KD,Kaduna,7.401557510000032,11.059160471000041,
POINT,10.570360950000065,8.360460430000046,02cef12e-0ad7-4ffe-9cfa-c5f8a6c06d85,Universal Basic Education Unguwan Bature,Primary,Primary,Public,Formal,School,,,KD1509,NMIS,Pambegua,19015,Kubau,KD,Kaduna,8.360460430000046,10.570360950000065,
POINT,10.048794690000022,7.774790420000045,02dea4fd-abd3-45b6-8f89-e3a0caa0ca99,Universal Basic Education Kampani,Primary,Primary,Public,Formal,School,,,KD1208,NMIS,Maro,19012,Kajuru,KD,Kaduna,7.774790420000045,10.048794690000022,
POINT,10.06594,8.65503,030139c2-1897-4bf1-aeea-dda8505db2d4,LEA Primary School Balak,Primary,Primary,Public,Formal,School,,,KD1703,OSGOF,Garu Mariri,19017,Lere,KD,Kaduna,8.65503,10.06594,
POINT,10.713488460000065,6.56642854200004,03085801-25f2-4ee6-83eb-cab8b458f23f,LEA Primary School Mando,Primary,Primary,Public,Formal,School,,,KD0101,NMIS,Gayam,19001,Birnin Gwari,KD,Kaduna,6.56642854200004,10.713488460000065,
POINT,10.30399667100005,8.773980000000051,033cddae-0d42-424b-8b65-09045b80d7b4,Universal Basic Education Primary School Tashan Dogara,Primary,Primary,Public,Formal,School,,,KD1701,NMIS,Abadawa,19017,Lere,KD,Kaduna,8.773980000000051,10.30399667100005,
POINT,11.255542191000075,7.467879660000051,0342f1eb-45d1-4674-a587-c58aa25150c8,Doctor Shehu Lawal Giwa Staff School,Primary,Standard,Private,Formal,School,,,KD0304,NMIS,Giwa,19003,Giwa,KD,Kaduna,7.467879660000051,11.255542191000075,
POINT,10.452901030000021,7.461331510000036,03433bc0-7502-47e8-90fd-8975f94f2f94,Zerephat Academy,Primary,Standard,Private,Formal,School,,,KD0211,NMIS,Sabon Tasha,19002,Chikun,KD,Kaduna,7.461331510000036,10.452901030000021,
POINT,9.974313334000044,8.555755000000033,03669510-7079-47a5-8612-a22e9ddf7586,Eccde Preprimary School Rafin Gora,Primary,Standard,Public,Formal,School,,,KD1403,NMIS,Damakasuwa,19014,Kauru,KD,Kaduna,8.555755000000033,9.974313334000044,
POINT,9.552488924000045,7.931399345000045,0374c991-f544-4b97-a81d-9542cc08c8c5,Government Secondary School Junior Kenyi,Secondary,Junior,Public,Formal,School,,,KD1101,NMIS,Aribi,19011,Kagarko,KD,Kaduna,7.931399345000045,9.552488924000045,
POINT,10.445046240000067,7.45422601000007,037c5707-a3be-4ff3-bfde-2812ebd1219c,Christ Ambassador Nursery Primary and Secondary School,Secondary,Aggregate,Private,Formal,School,,,KD0211,NMIS,Sabon Tasha,19002,Chikun,KD,Kaduna,7.45422601000007,10.445046240000067,
POINT,11.174818771000048,8.225402790000032,037db6d1-4e01-4d8e-8ba8-3fb02fc09997,Wisdom Nursery and Primary School,Primary,Standard,Private,Formal,School,,,KD0502,NMIS,Ikara,19005,Ikara,KD,Kaduna,8.225402790000032,11.174818771000048,
POINT,9.587416650000023,8.14253747500004,037f98cb-8c43-47d6-a60b-8b3ccf825717,LGEA Kurmin Zomo,Primary,Standard,Public,Formal,School,,,KD0602,NMIS,Daddu,19006,Jaba,KD,Kaduna,8.14253747500004,9.587416650000023,
POINT,10.271165370000062,8.644609451000065,03998e4e-c6e6-4a6f-85c3-6f961bb41563,LGEA Primary School Guma,Primary,Primary,Public,Formal,School,,,KD1707,NMIS,Lazuru Tuddai,19017,Lere,KD,Kaduna,8.644609451000065,10.271165370000062,
POINT,11.412219530000073,8.126254120000056,03bce765-4a71-4325-a33f-a9cb063f876e,LGEA Angwan Ango Mukkaddas Primary School,Primary,Standard,Public,Formal,School,,,KD0505,NMIS,Kuya,19005,Ikara,KD,Kaduna,8.126254120000056,11.412219530000073,
POINT,9.338761731000034,8.608236230000045,03bcf1f4-8407-4211-aa36-b612af882245,LGEA Kongon,Primary,Primary,Public,Formal,School,,,KD2004,NMIS,Bokana,19020,Sanga,KD,Kaduna,8.608236230000045,9.338761731000034,
POINT,9.873753191000048,7.970795631000044,03c796a5-5176-4007-97fb-df077019f990,LGEA Primary School Ugwan Pah Ii,Primary,Primary,Public,Formal,School,,,KD0807,NMIS,Gumel,19008,Kachia,KD,Kaduna,7.970795631000044,9.873753191000048,
POINT,10.519495000000063,8.635228333000043,03c79d19-a4cb-4b87-847b-64be0853db2a,Universal Basic Education Primary School Kakum Amawa,Primary,Primary,Public,Formal,School,,,KD1705,NMIS,Kayarda,19017,Lere,KD,Kaduna,8.635228333000043,10.519495000000063,
POINT,9.766170551000073,8.327950280000039,03cf5d0e-80c7-497a-80df-65f339abde55,Universal Basic Education Madauchi II,Primary,Standard,Public,Formal,School,,,KD2210,NMIS,Zonkwa,19022,Zangon Kataf,KD,Kaduna,8.327950280000039,9.766170551000073,
POINT,10.556527621000043,7.4428936400000225,03cfb70f-7d09-4b94-be42-fc830adfb80d,LEA Nursery and Primary School Ungwan Kanawa,Primary,Standard,Public,Formal,School,,,KD0903,NMIS,Hayin Banki,19009,Kaduna North,KD,Kaduna,7.4428936400000225,10.556527621000043,
POINT,10.838146810000069,8.104117513000062,03d389fd-893e-404f-9d5e-c51b5307a585,Universal Basic Education Marmara Rahama,Primary,Primary,Public,Formal,School,,,KD2108,NMIS,Rahama,19021,Soba,KD,Kaduna,8.104117513000062,10.838146810000069,
POINT,10.50849259100005,7.413877845000059,03d3d279-dc82-4f20-9875-7e5df2a6772c,LGEA Primary Schooll Fulani Road Tudun Wada Kaduna,Primary,Standard,Public,Formal,School,,,KD1010,NMIS,Tudun Wada South,19010,Kaduna South,KD,Kaduna,7.413877845000059,10.50849259100005,
POINT,10.633898330000022,6.93475333300006,03fbd0e0-33fd-4084-8dcf-93cac4e6ec18,First Baptist Nursery and Primary School,Primary,Standard,Public,Formal,School,,,KD0205,NMIS,Kunai,19002,Chikun,KD,Kaduna,6.93475333300006,10.633898330000022,
POINT,11.105077471000072,8.521101660000056,0407cd71-ad7a-4f99-8a1d-c2970385097c,Universal Basic Education Anguwan Kambu Primary School,Primary,Primary,Public,Formal,School,,,KD1504,NMIS,Haskiya,19015,Kubau,KD,Kaduna,8.521101660000056,11.105077471000072,
POINT,11.02151445100003,7.76040990000007,04115b5e-c179-43b8-a569-588746c365e3,Government Junior Secondary School Aba Zaria,Secondary,Junior,Public,Formal,School,,,KD2313,NMIS,Wuciciri,19023,Zaria,KD,Kaduna,7.76040990000007,11.02151445100003,
POINT,9.489344359000029,8.46325457100005,0414546a-b916-40d3-a77b-02a0829aa578,Nomadic Primary School,Primary,Standard,Public,Formal,School,,,KD0702,NMIS,Atuku,19007,Jema'A,KD,Kaduna,8.46325457100005,9.489344359000029,
POINT,10.345543031000034,7.422133684000073,041ec76d-6ba0-4ee0-9e66-25c4b38528bf,Universal Basic Education Primary School Ungwan Pah Kakau,Primary,Primary,Public,Formal,School,,,KD0203,NMIS,Kakau,19002,Chikun,KD,Kaduna,7.422133684000073,10.345543031000034,
POINT,10.525448571000027,7.573619810000025,04296f97-ecca-4f0b-9a23-f1b8507de6c3,Universal Basic Education Lokotuko,Primary,Primary,Public,Formal,School,,,KD0204,NMIS,Kujama,19002,Chikun,KD,Kaduna,7.573619810000025,10.525448571000027,
POINT,10.698950541000045,7.759243980000065,0436ff01-dc6d-48f0-b416-64ecfa439613,Hayingada Primary School,Primary,Primary,Public,Formal,School,,,KD0403,NMIS,Fanshanu,19004,Igabi,KD,Kaduna,7.759243980000065,10.698950541000045,
POINT,10.67071259100004,6.550233364000064,043c395d-8660-4154-b9a1-a4bbf2dd751f,Government Secondary Schools Birnin Gwari,Secondary,Senior,Public,Formal,School,,,KD0103,NMIS,Magajin Gari 1,19001,Birnin Gwari,KD,Kaduna,6.550233364000064,10.67071259100004,
POINT,9.225207901000033,8.371033870000076,04891eee-08f1-49c4-9d12-f18464dd4240,Universal Basic Education Gbonkok,Primary,Primary,Public,Formal,School,,,KD2002,NMIS,Arak,19020,Sanga,KD,Kaduna,8.371033870000076,9.225207901000033,
POINT,11.161746121000022,7.776360670000031,04942596-6941-408f-805d-5058674eb5f7,Unguwan Wakili Nomadic Primary School,Primary,Primary,Public,Formal,School,,,KD1911,NMIS,Zabi,19019,Sabon Gari,KD,Kaduna,7.776360670000031,11.161746121000022,
POINT,10.783463711000024,8.272915480000052,049f367e-5cd7-4e32-8cce-5b76c50247cb,LGEA Primary School,Primary,Primary,Public,Formal,School,,,KD1511,NMIS,Zuntu,19015,Kubau,KD,Kaduna,8.272915480000052,10.783463711000024,
POINT,11.035856971000044,7.720803640000042,04ac2d3a-da82-4cc4-bdf9-27fd5be70ef1,Gidan Kano Universal Basic Education,Primary,Standard,Public,Formal,School,,,KD2303,NMIS,Gyellesu,19023,Zaria,KD,Kaduna,7.720803640000042,11.035856971000044,
POINT,11.07616814100004,7.7351105600000665,04b03c18-ec0a-4549-b1f7-12f9a59c18e0,Universal Basic Education Unguwan Kaya,Primary,Standard,Public,Formal,School,,,KD2303,NMIS,Gyellesu,19023,Zaria,KD,Kaduna,7.7351105600000665,11.07616814100004,
POINT,9.650877715000036,7.875657678000039,04b1bba3-e99b-4400-9cf4-ea5421a8247a,Nomadic Rugan Ardo Primary School Unguwan Pah,Primary,Primary,Public,Formal,School,,,KD1101,NMIS,Aribi,19011,Kagarko,KD,Kaduna,7.875657678000039,9.650877715000036,
POINT,11.03664100100002,7.477574944000025,04e6ecc5-dd64-4817-8e5b-c74314552db4,Nomadic Murai,Primary,Primary,Public,Formal,School,,,KD0310,NMIS,Wazata,19003,Giwa,KD,Kaduna,7.477574944000025,11.03664100100002,
POINT,10.755388120000077,8.304552600000022,05032604-4692-4a52-8e39-cadb50a8b79c,Universal Basic Education Kagadama Zuntu Primary School,Primary,Primary,Public,Formal,School,,,KD1505,NMIS,Kareh,19015,Kubau,KD,Kaduna,8.304552600000022,10.755388120000077,
POINT,10.556364661000032,6.216427088000046,051756c0-c0a8-48fc-a380-5ee2685c8f14,LGEA Primary School,Primary,Primary,Public,Formal,School,,,KD0106,NMIS,Randagi,19001,Birnin Gwari,KD,Kaduna,6.216427088000046,10.556364661000032,
POINT,11.146067841000047,7.2038040700000465,051e9ece-2fea-4215-aa7a-b86f1c32173d,LGEA Primary School Jigo,Primary,Primary,Public,Formal,School,,,KD0305,NMIS,Idasu,19003,Giwa,KD,Kaduna,7.2038040700000465,11.146067841000047,
POINT,9.975264072000073,8.000058532000025,05249aeb-1880-46c1-aeb2-018f2cfb54c2,Army Children School Nasa,Primary,Standard,Public,Formal,School,,,KD0801,NMIS,Agunu,19008,Kachia,KD,Kaduna,8.000058532000025,9.975264072000073,
POINT,9.520554220000065,7.442794910000032,052707cb-9db5-4bc4-8073-b257183f0bdd,LEA Issah Pago,Primary,Standard,Public,Formal,School,,,KD1103,NMIS,Jere North,19011,Kagarko,KD,Kaduna,7.442794910000032,9.520554220000065,
POINT,9.807068333000075,8.618513333000067,053e6811-ec55-48b2-8395-1bad6a4cab3f,LEA Primary School Kizakoro,Primary,Primary,Public,Formal,School,,,KD1406,NMIS,Kamaru,19014,Kauru,KD,Kaduna,8.618513333000067,9.807068333000075,
POINT,9.402306676000023,7.320595980000064,05483b59-2f92-4472-9fa0-22a399fa7297,Universal Basic Education Prary School Gwaba,Primary,Primary,Public,Formal,School,,,KD1102,NMIS,Iddah,19011,Kagarko,KD,Kaduna,7.320595980000064,9.402306676000023,
POINT,9.85401749700003,7.6889652010000304,054a23cc-ac79-4188-89b9-08d8c2ca28c9,Universal Basic Education Gizago,Primary,Primary,Public,Formal,School,,,KD0802,NMIS,Ankwa,19008,Kachia,KD,Kaduna,7.6889652010000304,9.85401749700003,
POINT,10.074957451000046,8.173762930000066,054cd165-3f4e-45dd-bd56-f9d09044eea9,Government Junior Secondary School Ungwa Makama,Secondary,Junior,Public,Formal,School,,,KD2203,NMIS,Ikulu,19022,Zangon Kataf,KD,Kaduna,8.173762930000066,10.074957451000046,
POINT,9.692269564000071,8.165524006000055,055357f7-9ccd-4805-ab76-ac419eb533e3,LGEA Primary Sch Abet,Primary,Standard,Public,Formal,School,,,KD2201,NMIS,Gidan Jatau,19022,Zangon Kataf,KD,Kaduna,8.165524006000055,9.692269564000071,
POINT,10.576147240000068,7.506773200000055,05a6460c-a03d-447b-970f-73334e5ea2a1,Universal Basic Education Anguwan Tudu Primary School,Primary,Primary,Public,Formal,School,,,KD0408,NMIS,Rigachikun,19004,Igabi,KD,Kaduna,7.506773200000055,10.576147240000068,
POINT,9.708175064000045,7.952658534000022,05c4ae62-28ea-4a7d-a334-4e4a7b00a96d,Universal Basic Education Unguwan Waja,Primary,Primary,Public,Formal,School,,,KD0811,NMIS,Kwaturu,19008,Kachia,KD,Kaduna,7.952658534000022,9.708175064000045,
POINT,9.554516673000023,7.761186361000057,05cb32e9-ef9d-4296-8395-f5525fcb1a3a,Government Secondary School Kushe Makaranta,Secondary,Standard,Public,Formal,School,,,KD1110,NMIS,Kushe,19011,Kagarko,KD,Kaduna,7.761186361000057,9.554516673000023,
POINT,9.598268868000048,7.901111841000045,05e26b15-cf21-4e11-9a18-1e5e58c7ca44,Government Secondary School Kurumi Dangana,Secondary,Junior,Public,Formal,School,,,KD1101,NMIS,Aribi,19011,Kagarko,KD,Kaduna,7.901111841000045,9.598268868000048,
POINT,11.289573311000026,7.979754210000067,05f88673-9baa-4cfe-b23b-344fad81cafd,Universal Basic Education Anguwan Kunda,Primary,Standard,Public,Formal,School,,,KD1808,NMIS,Meyari,19018,Makarfi,KD,Kaduna,7.979754210000067,11.289573311000026,
POINT,9.22587302100004,8.455025000000035,05fe290b-3128-4c23-b38a-a587b9510c0f,LGEA Intergreted Quranic School Gwantu,Primary,Primary,Public,Formal,School,,,KD2005,NMIS,Gwantu,19020,Sanga,KD,Kaduna,8.455025000000035,9.22587302100004,
POINT,10.310291580000069,7.193560610000077,060c8a9a-eb15-4cba-8429-e26acaeac721,Universal Basic Education Unguwan Turai,Primary,Primary,Public,Formal,School,,,KD0202,NMIS,Gwagwada,19002,Chikun,KD,Kaduna,7.193560610000077,10.310291580000069,
POINT,11.221855891000075,7.536538670000027,060dae23-8609-4aa8-9b3b-42c874853fbf,Bilal Academy My Baby Nursery and Primary School Maraba Guga,Primary,Standard,Private,Formal,School,,,KD0309,NMIS,Shika,19003,Giwa,KD,Kaduna,7.536538670000027,11.221855891000075,
POINT,11.086507561000076,7.723301850000041,061e8af6-31cf-4e5e-887f-8db8e9b8e5bb,Haruna Danja Foundation,Primary,Standard,Private,Formal,School,,,KD2310,NMIS,Tudun Wada,19023,Zaria,KD,Kaduna,7.723301850000041,11.086507561000076,
POINT,10.438880250000068,7.454087340000058,062a240b-9fd9-413a-9c88-82535665cd56,Greatway International School,Secondary,Aggregate,Private,Formal,School,,,KD0211,NMIS,Sabon Tasha,19002,Chikun,KD,Kaduna,7.454087340000058,10.438880250000068,
POINT,9.419655205000026,7.34929025200006,06595cfc-a410-40e9-be7d-b0d71052dce5,Sanpat Royal Academy Nursery and Primary School,Primary,Standard,Private,Formal,School,,,KD1102,NMIS,Iddah,19011,Kagarko,KD,Kaduna,7.34929025200006,9.419655205000026,
POINT,9.357131801000037,8.636879280000073,06685dc7-6f5d-4374-a350-90737b14a678,LGEA Amantu,Primary,Primary,Public,Formal,School,,,KD2004,NMIS,Bokana,19020,Sanga,KD,Kaduna,8.636879280000073,9.357131801000037,
POINT,9.81869000100005,8.567950000000053,0688d5a9-5630-44ac-89dd-19748b426f0b,LGEA Primary School,Primary,Primary,Public,Formal,School,,,KD1406,NMIS,Kamaru,19014,Kauru,KD,Kaduna,8.567950000000053,9.81869000100005,
POINT,9.815329313000063,7.460328341000036,069db904-16f6-4f0a-803d-5d62a510ab06,Universal Basic Education Primary School Sabon Akilbu,Primary,Primary,Public,Formal,School,,,KD0805,NMIS,Dokwa,19008,Kachia,KD,Kaduna,7.460328341000036,9.815329313000063,
POINT,9.72525537000007,8.163464069000042,06ad933d-d317-4997-9417-2a51514d34e7,LGEA,Primary,Primary,Public,Formal,School,,,KD2204,NMIS,Kamantan,19022,Zangon Kataf,KD,Kaduna,8.163464069000042,9.72525537000007,
POINT,11.105407891000027,7.764989870000022,06ba3e39-2c57-43ec-8f5c-7a22322958ff,Universal Basic Education Anguwan Mairogo,Primary,Primary,Public,Formal,School,,,KD2302,NMIS,Dambo,19023,Zaria,KD,Kaduna,7.764989870000022,11.105407891000027,
POINT,10.68742209100003,8.361522140000034,06cce090-a9f3-4dae-9800-c70338d30f80,Universal Basic Education Kampanin Jidda,Primary,Standard,Public,Formal,School,,,KD1505,NMIS,Kareh,19015,Kubau,KD,Kaduna,8.361522140000034,10.68742209100003,
POINT,10.04518752000007,7.777158370000052,06d8d202-c37c-47dd-9fb3-5613e180acfa,Government Secondary School Maro,Secondary,Standard,Public,Formal,School,,,KD1208,NMIS,Maro,19012,Kajuru,KD,Kaduna,7.777158370000052,10.04518752000007,
POINT,10.404570001000025,8.695601667000062,06e5d6c0-1969-4219-b107-de25d9a1b7a7,LEA Primary School Hayingada Saminaka,Primary,Standard,Public,Formal,School,,,KD1701,NMIS,Abadawa,19017,Lere,KD,Kaduna,8.695601667000062,10.404570001000025,
POINT,9.59555447100007,8.044282794000026,06e5f107-ecbe-47b6-a1d3-da7bd973cc06,Universal Basic Education Primary School Unguwan Gishiri,Primary,Primary,Public,Formal,School,,,KD0810,NMIS,Kurmin Musa,19008,Kachia,KD,Kaduna,8.044282794000026,9.59555447100007,
POINT,11.056930751000039,8.207374389000051,06ec09dd-29bf-40fe-bb77-b63df6a73237,Normadic Primary School Filan Bature,Primary,Primary,Public,Formal,School,,,KD1508,NMIS,Mah,19015,Kubau,KD,Kaduna,8.207374389000051,11.056930751000039,
POINT,11.234523651000075,7.8141438960000755,070baf81-5f88-43a6-be9e-1d027e60cdcd,Universal Basic Education Hawan Maimashi,Primary,Primary,Public,Formal,School,,,KD1801,NMIS,Dan Damisa,19018,Makarfi,KD,Kaduna,7.8141438960000755,11.234523651000075,
POINT,9.43478822700007,7.812808156000074,0717161e-6566-4c4d-b4ef-6fb8b4ff098d,LGEA Primary School Anguwan Galadima Kubacha,Primary,Primary,Public,Formal,School,,,KD1107,NMIS,Katugal,19011,Kagarko,KD,Kaduna,7.812808156000074,9.43478822700007,
POINT,11.311581941000043,8.245273010000062,07363f18-9d51-44ad-a570-0a4c81b300d9,Universal Basic Education Nomadic Daba Mabuga Primary School,Primary,Primary,Public,Formal,School,,,KD0504,NMIS,Kurmin Kogi,19005,Ikara,KD,Kaduna,8.245273010000062,11.311581941000043,
POINT,10.446592020000026,7.453067100000055,074362cf-1de4-415d-8e35-621bb4379acf,Fradapal El-Shaddai School,Secondary,Aggregate,Private,Formal,School,,,KD0211,NMIS,Sabon Tasha,19002,Chikun,KD,Kaduna,7.453067100000055,10.446592020000026,
POINT,9.683343173000026,8.033586144000026,075ceeaa-1b57-4af8-9cfc-6d25d5f26307,Nomadic Primary School Kurmin Gyada,Primary,Primary,Public,Formal,School,,,KD0811,NMIS,Kwaturu,19008,Kachia,KD,Kaduna,8.033586144000026,9.683343173000026,
POINT,11.110116810000022,7.716595380000058,0761d314-1348-41b4-9c51-546dc76b33bc,Zaria Children School GRA Sabon Gari,Secondary,Aggregate,Public,Formal,School,,,KD1905,NMIS,Hanwa,19019,Sabon Gari,KD,Kaduna,7.716595380000058,11.110116810000022,
POINT,10.432974940000065,7.456404170000042,0768d6ca-3fcf-4413-856f-acd7a4b5524c,Universal Basic Education Primary School Unguwan Barde,Primary,Standard,Public,Formal,School,,,KD0211,NMIS,Sabon Tasha,19002,Chikun,KD,Kaduna,7.456404170000042,10.432974940000065,
POINT,9.587030412000047,8.104943633000062,076da89e-c276-453c-b392-614d6e059b36,Universal Basic Education Primary School Ungwan Kifi,Primary,Primary,Public,Formal,School,,,KD0602,NMIS,Daddu,19006,Jaba,KD,Kaduna,8.104943633000062,9.587030412000047,
POINT,11.080602750000025,7.68878243000006,0782c0cf-cac5-4e6a-bf64-e0e60a4c5283,Great Standard School,Primary,Standard,Private,Formal,School,,,KD2309,NMIS,Tukur Tukur,19023,Zaria,KD,Kaduna,7.68878243000006,11.080602750000025,
POINT,9.81234850100003,8.45928071000003,079e928b-6deb-42d8-979f-d44efd26dcc8,Government Secondary School Magamiya,Secondary,Standard,Public,Formal,School,,,KD2211,NMIS,Zonzon,19022,Zangon Kataf,KD,Kaduna,8.45928071000003,9.81234850100003,
POINT,11.028441591000046,8.310441600000047,07be86a0-b1e9-4fca-95f8-4f99eb2e34ec,Universal Basic Education Bahori Primary School,Primary,Primary,Public,Formal,School,,,KD1508,NMIS,Mah,19015,Kubau,KD,Kaduna,8.310441600000047,11.028441591000046,
POINT,9.844578561000048,7.806217930000059,07c6341d-a0d9-4c8b-9757-8da2cb283481,Government Secondary School,Secondary,Standard,Public,Formal,School,,,KD0803,NMIS,Awon,19008,Kachia,KD,Kaduna,7.806217930000059,9.844578561000048,
POINT,9.866711640000062,8.417306850000045,07ee59e9-88cc-4107-8321-2cf870136c6d,LGEA Gidan Zaki,Primary,Primary,Public,Formal,School,,,KD2211,NMIS,Zonzon,19022,Zangon Kataf,KD,Kaduna,8.417306850000045,9.866711640000062,
POINT,10.546666671000025,8.536145000000033,07f0021b-cd33-405f-bdff-e4a113403789,Universal Basic Education Primary School Kawo Mauda,Primary,Primary,Public,Formal,School,,,KD1706,NMIS,Kudaru,19017,Lere,KD,Kaduna,8.536145000000033,10.546666671000025,
POINT,10.907012551000037,7.647555410000052,07f9d68b-ad14-4567-9fd7-0884d9c7e56f,Eccde Kamfanin Zangon Aya B Pre Primary School,Primary,Standard,Public,Formal,School,,,KD0412,NMIS,Zangon Aya,19004,Igabi,KD,Kaduna,7.647555410000052,10.907012551000037,
POINT,9.780206531000033,8.277020570000047,08195f08-7cc3-4463-b70b-0f047626842f,Government Girlsâ?? Secondary School,Secondary,Junior,Public,Formal,School,,,KD2210,NMIS,Zonkwa,19022,Zangon Kataf,KD,Kaduna,8.277020570000047,9.780206531000033,
POINT,10.586990121000042,7.391545773000075,081a0539-b91c-41ed-8d0f-4625363c91dd,LGEA,Primary,Primary,Public,Formal,School,,,KD0401,NMIS,Afaka,19004,Igabi,KD,Kaduna,7.391545773000075,10.586990121000042,
POINT,9.578002096000034,8.292923570000028,082484c3-bbcd-45b7-aa89-043b6fed8cc0,Government Senior Secondary School Kafanchan,Secondary,Senior,Public,Formal,School,,,KD0707,NMIS,Kafanchan A,19007,Jema'A,KD,Kaduna,8.292923570000028,9.578002096000034,
POINT,11.135813951000046,7.588151850000031,082c89ae-1845-414d-b7ec-5cbe615adcea,Universal Basic Education Primary School Yan Daka,Primary,Primary,Public,Formal,School,,,KD0308,NMIS,Panhauya,19003,Giwa,KD,Kaduna,7.588151850000031,11.135813951000046,
POINT,11.006164621000039,8.588700520000032,082fd8a1-696e-4bd0-bde0-52e66e68693d,Nomadic Dori Primary Dori,Primary,Primary,Public,Formal,School,,,KD1504,NMIS,Haskiya,19015,Kubau,KD,Kaduna,8.588700520000032,11.006164621000039,
POINT,9.491431118000037,8.001962900000024,08505e70-c513-4193-86a0-bbff41c97abf,Nomadic,Primary,Primary,Public,Formal,School,,,KD0607,NMIS,Nok,19006,Jaba,KD,Kaduna,8.001962900000024,9.491431118000037,
POINT,9.48482751900002,7.963398099000074,087642a7-3f88-4861-b997-058c70ba5b71,LGEA Primary School,Primary,Standard,Public,Formal,School,,,KD0603,NMIS,Dura Bitaro,19006,Jaba,KD,Kaduna,7.963398099000074,9.48482751900002,
POINT,10.288912050000022,7.178745960000072,0878e46a-338f-402c-974c-9c719308f059,LGEA Shepe,Primary,Primary,Public,Formal,School,,,KD0202,NMIS,Gwagwada,19002,Chikun,KD,Kaduna,7.178745960000072,10.288912050000022,
POINT,9.338748891000023,8.544006680000052,088ddc4e-c6d8-4f9a-84e6-e8ccefc952bc,Universal Basic Education Ayu Seminary,Primary,Primary,Public,Formal,School,,,KD2004,NMIS,Bokana,19020,Sanga,KD,Kaduna,8.544006680000052,9.338748891000023,
POINT,11.019346120000023,7.617189288000077,08c1e003-9499-4905-b481-792c2318f72d,Universal Basic Education Kasuwan Dutse,Primary,Primary,Public,Formal,School,,,KD2301,NMIS,Dutsen Abba,19023,Zaria,KD,Kaduna,7.617189288000077,11.019346120000023,
POINT,11.072644980000064,7.723644920000027,08c64e48-90f1-40e0-83d3-db36bd4fae5c,Bene Cpmprhensive School,Primary,Standard,Private,Formal,School,,,KD2306,NMIS,Kwarbai A,19023,Zaria,KD,Kaduna,7.723644920000027,11.072644980000064,
POINT,11.13287758000007,8.317604130000063,08cdad9f-8def-48a8-8ff9-d3c40f98ae13,Universal Basic Education Dion Sabo,Primary,Standard,Public,Formal,School,,,KD1506,NMIS,Kargi,19015,Kubau,KD,Kaduna,8.317604130000063,11.13287758000007,
POINT,10.76182453000007,8.546816690000071,08dd63a5-f3be-4a79-bf9d-2d2fe637ec0f,Universal Basic Education Koso Primary School,Primary,Primary,Public,Formal,School,,,KD1502,NMIS,Damau,19015,Kubau,KD,Kaduna,8.546816690000071,10.76182453000007,
POINT,10.519508330000065,7.407723333000035,08e67789-08ae-40be-a981-090b94d05a59,Auntee Niimatu Nursery Primary and Junior Secondary School,Secondary,Aggregate,Private,Formal,School,,,KD1007,NMIS,Sabon Gari South,19010,Kaduna South,KD,Kaduna,7.407723333000035,10.519508330000065,
POINT,10.041815040000074,8.011876345000076,08fdb64b-f4ae-4382-85a7-a95590b7ae7c,Universal Basic Education Primary Kurmi Biri Ii,Primary,Primary,Public,Formal,School,,,KD0801,NMIS,Agunu,19008,Kachia,KD,Kaduna,8.011876345000076,10.041815040000074,
POINT,10.412880021000035,7.404050190000021,09052d87-62a0-4a35-b3dd-725bfa4cd5d2,Liberty International School,Secondary,Aggregate,Private,Formal,School,,,KD0203,NMIS,Kakau,19002,Chikun,KD,Kaduna,7.404050190000021,10.412880021000035,
POINT,11.225436331000026,7.7970367670000655,091573ee-6593-4d8b-b68f-4341cd3f385f,Universal Basic Education,Primary,Primary,Public,Formal,School,,,KD1609,NMIS,Taba,19016,Kudan,KD,Kaduna,7.7970367670000655,11.225436331000026,
POINT,10.432204601000024,7.4226897800000415,09207df8-49a2-4c8a-88b3-6b2b68c844d0,Ammega Model Nursery Primary School and Ssecondary School,Secondary,Aggregate,Private,Formal,School,,,KD0212,NMIS,Yelwa,19002,Chikun,KD,Kaduna,7.4226897800000415,10.432204601000024,
POINT,9.084046000000058,8.575076000000024,092108b5-74ac-43a9-bb46-0a4dcb70267a,Local Government Education Authority Primary School,Primary,Primary,Public,Formal,School,,,KD2009,NMIS,Ninzo South,19020,Sanga,KD,Kaduna,8.575076000000024,9.084046000000058,
POINT,9.582837811000047,8.306029870000032,0926e1a0-af8b-4fc3-9520-c8c50dfbc1a4,LGEA Ungwar Mamuda,Primary,Standard,Public,Formal,School,,,KD0711,NMIS,Maigizo,19007,Jema'A,KD,Kaduna,8.306029870000032,9.582837811000047,
POINT,11.24755919100005,7.747780681000052,092ad38e-1bbf-407d-b1f9-e66ab304f48b,LGEA Lafiya,Primary,Primary,Public,Formal,School,,,KD1602,NMIS,Garu,19016,Kudan,KD,Kaduna,7.747780681000052,11.24755919100005,
POINT,10.50224841100004,7.430663109000022,09527233-ec35-4b01-8812-6bd7b10dbca8,A B S I Primary School,Primary,Standard,Public,Formal,School,,,KD0902,NMIS,Dadi Riba,19009,Kaduna North,KD,Kaduna,7.430663109000022,10.50224841100004,
POINT,11.056748751000043,8.207374610000045,095f3105-41cd-4fc1-a549-7a543356d1b9,Universal Basic Education Unguwan Tafki Primary School,Primary,Primary,Public,Formal,School,,,KD1508,NMIS,Mah,19015,Kubau,KD,Kaduna,8.207374610000045,11.056748751000043,
POINT,11.27753019100004,7.817367911000076,0960bd0f-a76b-4bad-b3d7-71e263a192d7,Universal Basic Education Anguwan Makera,Primary,Primary,Public,Formal,School,,,KD1801,NMIS,Dan Damisa,19018,Makarfi,KD,Kaduna,7.817367911000076,11.27753019100004,
POINT,11.03541419100003,7.056973760000062,097a7db7-abe8-4218-8d96-1f554caf9849,LGEA Ruwan Sarki,Primary,Primary,Public,Formal,School,,,KD0107,NMIS,Damari,19001,Birnin Gwari,KD,Kaduna,7.056973760000062,11.03541419100003,
POINT,10.579241671000034,6.929676667000024,09860edb-e9bf-454b-b3f0-a4db58ab819c,Universal Basic Education Kunai Primary School,Primary,Primary,Public,Formal,School,,,KD0205,NMIS,Kunai,19002,Chikun,KD,Kaduna,6.929676667000024,10.579241671000034,
POINT,11.058856320000075,7.330797000000075,098edc71-103d-4989-9c1f-e4b85cb6a75d,Government Junior Secondary School Galadimawa,Secondary,Junior,Public,Formal,School,,,KD0302,NMIS,Galadimawa,19003,Giwa,KD,Kaduna,7.330797000000075,11.058856320000075,
POINT,10.78542531100004,6.111965775000044,09b3d4ea-e92b-413e-b602-f9d747092c83,Universal Basic Education Primary School Ishiwai,Primary,Primary,Public,Formal,School,,,KD0102,NMIS,Kakangi,19001,Birnin Gwari,KD,Kaduna,6.111965775000044,10.78542531100004,
POINT,9.430984855000077,7.985955477000061,09c9930d-1e68-4e39-9115-924f196f07e5,Baptist High School,Secondary,Standard,Private,Formal,School,,,KD0603,NMIS,Dura Bitaro,19006,Jaba,KD,Kaduna,7.985955477000061,9.430984855000077,
POINT,10.752486060000024,8.224565350000034,09cabcf0-9b9b-44c8-b065-4afc40438841,Universal Basic Education Wanya Primary School,Primary,Primary,Public,Formal,School,,,KD1511,NMIS,Zuntu,19015,Kubau,KD,Kaduna,8.224565350000034,10.752486060000024,
POINT,10.466550091000045,7.952320610000072,09cbd1b4-72fd-4be1-b6c2-cf2232818d72,Universal Basic Education Sabon Gida,Primary,Primary,Public,Formal,School,,,KD1205,NMIS,Kallah,19012,Kajuru,KD,Kaduna,7.952320610000072,10.466550091000045,
POINT,10.515191671000025,8.47269166700005,09d8e00d-8813-40c4-9035-a906c837a8ce,LEA Primary School Maiyamma I,Primary,Standard,Public,Formal,School,,,KD1706,NMIS,Kudaru,19017,Lere,KD,Kaduna,8.47269166700005,10.515191671000025,
POINT,11.214368381000043,8.180174110000053,09f820b2-2f1a-46a9-8eee-8e39ab206187,LGEA Dan Lawal Primary School,Primary,Standard,Public,Formal,School,,,KD0504,NMIS,Kurmin Kogi,19005,Ikara,KD,Kaduna,8.180174110000053,11.214368381000043,
POINT,9.38793540100005,8.382235765000075,09fc1e9b-0a11-4fd5-826d-37e7845eaad4,Anglican Nursery and Primary School,Primary,Standard,Private,Formal,School,,,KD0705,NMIS,Godogodo,19007,Jema'A,KD,Kaduna,8.382235765000075,9.38793540100005,
POINT,10.145156591000045,8.522184250000066,0a0239ef-9a30-45ff-87bc-b8cc1813b2f8,Normadic Primary School Jamaar Iya,Primary,Primary,Public,Formal,School,,,KD1703,NMIS,Garu Mariri,19017,Lere,KD,Kaduna,8.522184250000066,10.145156591000045,
POINT,9.437513351000064,8.352500796000072,0a0d2a40-34f0-4d75-bb90-b18a0e9e5f10,Model Primary School Godogodo,Primary,Standard,Public,Formal,School,,,KD0705,NMIS,Godogodo,19007,Jema'A,KD,Kaduna,8.352500796000072,9.437513351000064,
POINT,10.456529260000025,7.4650137300000665,0a2612de-7e57-4e95-b347-0bc92a43b0f8,Lite Academy,Secondary,Aggregate,Private,Formal,School,,,KD0211,NMIS,Sabon Tasha,19002,Chikun,KD,Kaduna,7.4650137300000665,10.456529260000025,
POINT,11.248139931000026,7.474432080000042,0a357352-03b1-43fd-8b92-7f071f2a1486,Government Day Secondary School Giwa,Secondary,Standard,Public,Formal,School,,,KD0306,NMIS,Kakangi,19003,Giwa,KD,Kaduna,7.474432080000042,11.248139931000026,
POINT,10.662199260000023,6.393409967000025,0a3d9992-6759-47a5-a14d-16d432f4d1a6,Universal Basic Education,Primary,Standard,Public,Formal,School,,,KD0104,NMIS,Magajin Gari 2,19001,Birnin Gwari,KD,Kaduna,6.393409967000025,10.662199260000023,
POINT,10.823997640000073,7.271543100000031,0a558f05-a2b0-4f1a-a8e2-a9217ee03cd1,Universal Basic Education Primary School Rikau,Primary,Primary,Public,Formal,School,,,KD0410,NMIS,Sabon Birnin,19004,Igabi,KD,Kaduna,7.271543100000031,10.823997640000073,
POINT,11.106801430000075,7.723313090000033,0a69b23b-2064-4065-9c25-b2a6e46e7f92,Nigerian Railway Staff School,Primary,Primary,Public,Formal,School,,,KD1903,NMIS,Chikaji,19019,Sabon Gari,KD,Kaduna,7.723313090000033,11.106801430000075,
POINT,9.20898703000006,8.313775560000067,0a7afe3a-1a28-4f48-bc1d-e4e6e5cdeec4,Universal Basic Education Ankolo,Primary,Primary,Public,Formal,School,,,KD2002,NMIS,Arak,19020,Sanga,KD,Kaduna,8.313775560000067,9.20898703000006,
POINT,9.561670250000077,8.303993130000038,0a9a64b6-9524-41d1-b013-b569809f40c2,Universal Basic Education Takau 2,Primary,Primary,Public,Formal,School,,,KD0712,NMIS,Takau,19007,Jema'A,KD,Kaduna,8.303993130000038,9.561670250000077,
POINT,9.150324000000069,8.410533000000044,0aac8e65-8dfb-4cc4-b275-1ee1882919da,Ungwan Makama Pilot Science Primary School,Primary,Primary,Public,Formal,School,,,KD2010,NMIS,Ninzo West,19020,Sanga,KD,Kaduna,8.410533000000044,9.150324000000069,
POINT,10.04081227100005,7.10638952000005,0ab0b5fb-2876-4edc-92c3-b9cf36026006,LGEA Katarma I,Primary,Primary,Public,Formal,School,,,KD0201,NMIS,Chikun,19002,Chikun,KD,Kaduna,7.10638952000005,10.04081227100005,
POINT,11.318165661000023,7.79482662700002,0ac9c2c4-1d55-470c-b9ee-1759b041ac24,LEA Masaka,Primary,Primary,Public,Formal,School,,,KD1601,NMIS,Doka,19016,Kudan,KD,Kaduna,7.79482662700002,11.318165661000023,
POINT,10.92041596000007,7.647912360000021,0adaa392-7631-4de3-a941-ce2a0ca97d75,Eccde Lamban Zango Pre Primary School,Primary,Standard,Public,Formal,School,,,KD0412,NMIS,Zangon Aya,19004,Igabi,KD,Kaduna,7.647912360000021,10.92041596000007,
POINT,10.47758667100004,7.455600710000056,0af57a01-11eb-4e99-967e-d570a9fe1be7,Harry Royal Academy,Secondary,Aggregate,Private,Formal,School,,,KD0207,NMIS,Narayi,19002,Chikun,KD,Kaduna,7.455600710000056,10.47758667100004,
POINT,10.467541671000049,7.4223066670000435,0b12cb47-5e92-4511-8909-615aacb17654,Green Fields International School,Primary,Standard,Private,Integrated,School,,,KD1002,NMIS,Barnawa,19010,Kaduna South,KD,Kaduna,7.4223066670000435,10.467541671000049,
POINT,9.548921585000073,8.30613076700007,0b1e497d-c691-4851-a7d2-af64cb60dcdd,LGEA Unicef Model Primary School Tudun Wada Kaninkon,Primary,Standard,Public,Formal,School,,,KD0710,NMIS,Kaninkon,19007,Jema'A,KD,Kaduna,8.30613076700007,9.548921585000073,
POINT,9.792983334000041,8.51738666700004,0b1f871b-597e-4a7f-8f7f-c303a2a67880,Universal Basic Education Primary School,Primary,Primary,Public,Formal,School,,,KD1411,NMIS,Pari,19014,Kauru,KD,Kaduna,8.51738666700004,9.792983334000041,
POINT,9.779534341000044,8.274933880000049,0b26aea2-a6b5-4bc2-9ea8-03de4436a182,Government Girls College Zonkwa,Secondary,Standard,Public,Formal,School,,,KD2210,NMIS,Zonkwa,19022,Zangon Kataf,KD,Kaduna,8.274933880000049,9.779534341000044,
POINT,10.485125180000068,8.749580383000023,0b2cc0d6-3e87-4944-a540-f224a95a54b9,Universal Basic Education Jura Ll,Primary,Primary,Public,Formal,School,,,KD1702,NMIS,Dan Alhaji,19017,Lere,KD,Kaduna,8.749580383000023,10.485125180000068,
POINT,10.468131431000074,7.39783637000005,0b2e1363-fbbf-4571-b8fe-7447f31e6fed,Winny International School,Primary,Primary,Private,Formal,School,,,KD0208,NMIS,Nassarawa,19002,Chikun,KD,Kaduna,7.39783637000005,10.468131431000074,
POINT,11.196378201000073,7.580329120000044,0b432483-9b16-43c4-b588-22b2aaa1f000,LGEA Primary School Hayin Gada B,Primary,Standard,Public,Formal,School,,,KD0309,NMIS,Shika,19003,Giwa,KD,Kaduna,7.580329120000044,11.196378201000073,
POINT,10.999546051000038,7.637407780000046,0b624b3d-075d-40f5-8e32-191715763ff9,Universal Basic Education Tudun Gaude,Primary,Standard,Public,Formal,School,,,KD2301,NMIS,Dutsen Abba,19023,Zaria,KD,Kaduna,7.637407780000046,10.999546051000038,
POINT,10.923478600000067,6.757493019000037,0b6c4502-a835-4518-84c5-f00102db498b,Universal Basic Education Primary School Maganda Ii,Primary,Primary,Public,Formal,School,,,KD0105,NMIS,Magajin Gari 3,19001,Birnin Gwari,KD,Kaduna,6.757493019000037,10.923478600000067,
POINT,11.109092830000066,8.043687344000034,0b6f355a-d1b6-4aaa-a76f-c1842a559e25,Universal Basic Education Daa Primary School,Primary,Primary,Public,Formal,School,,,KD2110,NMIS,Turawa,19021,Soba,KD,Kaduna,8.043687344000034,11.109092830000066,
POINT,11.233161090000067,8.055768013000034,0b74de67-3ee0-4634-b8e1-e78d36f5c131,Universal Basic Education Anguwan Bazai,Primary,Primary,Public,Formal,School,,,KD1805,NMIS,Gubuchi,19018,Makarfi,KD,Kaduna,8.055768013000034,11.233161090000067,
POINT,10.927112700000066,7.717871040000034,0b7c56ce-ffef-4f9c-b06f-1e17acab7304,Universal Basic Education Damari Gari Primary School,Primary,Primary,Public,Formal,School,,,KD0412,NMIS,Zangon Aya,19004,Igabi,KD,Kaduna,7.717871040000034,10.927112700000066,
POINT,10.812135101000024,7.303511750000041,0b7da568-23d4-4fac-801d-840afbb04fab,Eccde Sabon Birnin Daji Pre Primary School,Primary,Standard,Public,Formal,School,,,KD0410,NMIS,Sabon Birnin,19004,Igabi,KD,Kaduna,7.303511750000041,10.812135101000024,
POINT,9.658119679000038,7.932241559000033,0b80167c-7efe-42fa-8cff-1d3e4de6b2d7,Universal Basic Education Primary School Sabon Gari Gantan,Primary,Primary,Public,Formal,School,,,KD0811,NMIS,Kwaturu,19008,Kachia,KD,Kaduna,7.932241559000033,9.658119679000038,
POINT,10.434871120000025,7.428438210000024,0ba2d77c-e465-4d13-94f4-e15577cbccd0,World Class Schools,Primary,Standard,Private,Formal,School,,,KD0212,NMIS,Yelwa,19002,Chikun,KD,Kaduna,7.428438210000024,10.434871120000025,
POINT,10.880215591000024,7.713465110000072,0ba5e4c8-c789-48ef-aa78-facbf5995809,Anguwan Bouwa Primary School,Primary,Primary,Public,Formal,School,,,KD0411,NMIS,Turunku,19004,Igabi,KD,Kaduna,7.713465110000072,10.880215591000024,
POINT,11.261415370000066,7.429856190000066,0bcd35a7-ec4e-4db4-b5fa-701cb1867e3c,Nomadic Primary School Kwandari,Primary,Primary,Public,Formal,School,,,KD0304,NMIS,Giwa,19003,Giwa,KD,Kaduna,7.429856190000066,11.261415370000066,
POINT,10.459105041000043,7.3979691000000685,0bcf55e4-ea44-45ca-80eb-8cb6fc2f3098,Maranathan Children School,Primary,Standard,Private,Formal,School,,,KD0210,NMIS,Sabon Gari Nassarawa,19002,Chikun,KD,Kaduna,7.3979691000000685,10.459105041000043,
POINT,11.319576501000029,7.750977874000057,0be781fc-b987-40aa-b472-2570b2da3a43,Government Secondary School Kudan Junior,Secondary,Junior,Public,Formal,School,,,KD1606,NMIS,Kudan,19016,Kudan,KD,Kaduna,7.750977874000057,11.319576501000029,
POINT,11.119411341000045,7.734273830000063,0bfb661b-d14a-4f70-9d35-7368b1367ac9,St?? John Nursery and Primary School,Primary,Standard,Faith Based,Integrated,School,,,KD1908,NMIS,Muchiya,19019,Sabon Gari,KD,Kaduna,7.734273830000063,11.119411341000045,
POINT,10.992485110000075,7.73931605000007,0c0bd404-6d2d-4706-a2b4-211340cc56f4,Damako Primary School,Primary,Primary,Public,Formal,School,,,KD2313,NMIS,Wuciciri,19023,Zaria,KD,Kaduna,7.73931605000007,10.992485110000075,
POINT,11.050239801000032,7.686599493000074,0c139e36-a1ee-44e3-89e5-a570841960b6,Government Secondary School Kofan Kuyanbana,Secondary,Standard,Public,Formal,School,,,KD2303,NMIS,Gyellesu,19023,Zaria,KD,Kaduna,7.686599493000074,11.050239801000032,
POINT,10.588860821000026,7.472224230000052,0c1876a8-41fd-4e0b-b87e-6e3f78f6fdde,LEA,Primary,Standard,Public,Formal,School,,,KD0408,NMIS,Rigachikun,19004,Igabi,KD,Kaduna,7.472224230000052,10.588860821000026,
POINT,11.310591100000067,7.916786671000068,0c22dce6-4489-4952-a993-36eff85de061,Universal Basic Education,Primary,Primary,Public,Formal,School,,,KD1804,NMIS,Gimi,19018,Makarfi,KD,Kaduna,7.916786671000068,11.310591100000067,
POINT,9.692885501000035,8.324360210000066,0c234614-1dc6-4c93-a384-290c162d5c27,Universal Basic Education Techet,Primary,Standard,Public,Formal,School,,,KD2205,NMIS,Madakiya,19022,Zangon Kataf,KD,Kaduna,8.324360210000066,9.692885501000035,
POINT,10.677114691000043,7.979556010000067,0c236fbd-1c5d-4edb-8198-568c666f73d0,LEA Amanawa,Primary,Primary,Public,Formal,School,,,KD1410,NMIS,Makami,19014,Kauru,KD,Kaduna,7.979556010000067,10.677114691000043,
POINT,10.300166670000067,8.547855000000027,0c2ec244-359b-4cad-bfec-72b590316e20,LEA Primary School Rimi Dogon Daji,Primary,Primary,Public,Formal,School,,,KD1709,NMIS,Raminkura,19017,Lere,KD,Kaduna,8.547855000000027,10.300166670000067,
POINT,10.462167809752714,7.442944620332412,0009a8af-3d0e-493b-a863-ac8a81706bb9,Maigana Road,,,,,,,,KD0207,eHA_Polio,Narayi,19002,Chikun,KD,Kaduna,7.442944620332412,10.462167809752714,
POINT,10.591158570395862,7.4060390502568225,000a2113-0498-44ec-a707-b7189b8b07c0,Manomi,,,,,,,,KD0401,eHA_Polio,Afaka,19004,Igabi,KD,Kaduna,7.4060390502568225,10.591158570395862,
POINT,10.54391009029274,7.466195490130303,000c8340-244b-402f-93db-9aade564b29f,Ohikere Road,,,,,,,,KD0910,eHA_Polio,Unguwar Rimi,19009,Kaduna North,KD,Kaduna,7.466195490130303,10.54391009029274,
POINT,10.4997846823116,7.441290018208235,000d2914-39a4-476e-a99f-46b107d88d01,Mopol Quarters,,,,,,,,KD0904,eHA_Polio,Kabala,19009,Kaduna North,KD,Kaduna,7.441290018208235,10.4997846823116,
POINT,10.591697199761825,7.465491439651942,000e4bd0-0625-4abe-9b49-b123dc672627,Jae Road 2,,,,,,,,KD0408,eHA_Polio,Rigachikun,19004,Igabi,KD,Kaduna,7.465491439651942,10.591697199761825,
POINT,9.724533779565036,7.682303159965329,000f8bed-d190-45c9-b3bf-9f3f794e183c,Rugan Monange,,,,,,,,KD0803,eHA_Polio,Awon,19008,Kachia,KD,Kaduna,7.682303159965329,9.724533779565036,
POINT,11.432477980032843,8.138013649599202,001366e5-a38c-40de-bd44-21b780e55488,Rugar Ahmadu,,,,,,,,KD0505,eHA_Polio,Kuya,19005,Ikara,KD,Kaduna,8.138013649599202,11.432477980032843,
POINT,10.974888910122615,8.138232959748166,00198559-d108-4676-853c-d4452bee599d,Rigar Ori,,,,,,,,KD2101,eHA_Polio,Danwata,19021,Soba,KD,Kaduna,8.138232959748166,10.974888910122615,
POINT,11.147308810273842,7.605595279845943,001fb8bf-5b69-4dc5-b60b-fea2aaac2d43,Rigan Wakili Saadu,,,,,,,,KD0308,eHA_Polio,Panhauya,19003,Giwa,KD,Kaduna,7.605595279845943,11.147308810273842,
POINT,10.53528493043234,7.436784790147101,0020208a-b21b-44f1-a486-fdc4f5927727,Water Board,,,,,,,,KD0911,eHA_Polio,Unguwar Sarki,19009,Kaduna North,KD,Kaduna,7.436784790147101,10.53528493043234,
POINT,10.263814229980767,7.039197970005546,0024cf8e-4d11-43be-9ce4-f11e2197955f,Lassapa,,,,,,,,KD0201,eHA_Polio,Chikun,19002,Chikun,KD,Kaduna,7.039197970005546,10.263814229980767,
POINT,10.579881391733522,8.762997249246155,00265585-eaaf-457d-8545-781d00c509a1,Rugan Rabo,,,,,,,,KD1702,eHA_Polio,Dan Alhaji,19017,Lere,KD,Kaduna,8.762997249246155,10.579881391733522,
POINT,9.739714929879938,7.9821935397267225,002786d0-cd18-4333-b653-5195525dd7ca,Ruggar Alhaji Yunusa,,,,,,,,KD0806,eHA_Polio,Gidan Tagwai,19008,Kachia,KD,Kaduna,7.9821935397267225,9.739714929879938,
POINT,10.84158420954833,8.534289519850006,0027cdfb-ee4f-4c62-8c00-997ae549bc81,Rugar Wada Ibrahim,,,,,,,,KD1502,eHA_Polio,Damau,19015,Kubau,KD,Kaduna,8.534289519850006,10.84158420954833,
POINT,11.39314037030482,7.963096469751179,00281f96-414d-4e24-a57d-54dfa5bdaf8a,Hayin Dan Kauye,,,,,,,,KD1803,eHA_Polio,Gazara,19018,Makarfi,KD,Kaduna,7.963096469751179,11.39314037030482,
POINT,11.371081670316983,7.881130000058818,002bf887-3749-4dfc-808d-db5bf860368d,Kofar Kudu,,,,,,,,KD1807,LQAS_GRID,Makarfi,19018,Makarfi,KD,Kaduna,7.881130000058818,11.371081670316983,
POINT,10.827991490312684,7.446649074849461,002c1766-cf66-4d05-ae2a-bfbd57cda789,Kauyen Fati,,,,,,,,KD0410,eHA_Polio,Sabon Birnin,19004,Igabi,KD,Kaduna,7.446649074849461,10.827991490312684,
POINT,9.847920290400396,8.423356660476372,002d672b-28ff-47c8-b1fe-130b8c3dfe09,Tsakiya Kibori,,,,,,,,KD2208,eHA_Polio,Zaman Dabo,19022,Zangon Kataf,KD,Kaduna,8.423356660476372,9.847920290400396,
POINT,10.398688319621385,7.496366500630074,002e52bf-54d1-4f18-a937-f253441efd52,Sabuwa,,,,,,,,KD0209,eHA_Polio,Rido,19002,Chikun,KD,Kaduna,7.496366500630074,10.398688319621385,
POINT,11.21623899010865,7.846742569694186,0033decf-ffaf-4d30-a1fd-3790a340d4a6,Mariga,,,,,,,,KD1801,eHA_Polio,Dan Damisa,19018,Makarfi,KD,Kaduna,7.846742569694186,11.21623899010865,
POINT,9.525614630408825,8.119539840047082,0034ba32-a619-4e62-9b97-a762cfd68a63,Kurmin Kwara Rugar Alhaji Manu,,,,,,,,KD0602,eHA_Polio,Daddu,19006,Jaba,KD,Kaduna,8.119539840047082,9.525614630408825,
POINT,10.979367471165574,8.06054660096396,00366b07-82d0-4341-9df4-ba060985ff16,Layin Malam Bako,,,,,,,,KD2111,eHA_Polio,Soba,19021,Soba,KD,Kaduna,8.06054660096396,10.979367471165574,
POINT,9.553670700471628,7.7396869159549055,003a8756-6459-498d-a544-7c91be9c21cc,Kasangwai,,,,,,,,KD1105,eHA_Polio,Kagarko North,19011,Kagarko,KD,Kaduna,7.7396869159549055,9.553670700471628,
POINT,10.593014049656574,7.396916090058198,003efb13-2859-4a58-9bbb-2396bd240e36,Bayyan Sterling,,,,,,,,KD0401,eHA_Polio,Afaka,19004,Igabi,KD,Kaduna,7.396916090058198,10.593014049656574,
POINT,10.44914948990737,7.397149290216646,0041100a-f07c-44b4-9cc9-f475d5e44d62,Kubi Street,,,,,,,,KD0210,eHA_Polio,Sabon Gari Nassarawa,19002,Chikun,KD,Kaduna,7.397149290216646,10.44914948990737,
POINT,11.049779950007519,7.702928139979008,004c3835-9ea5-448b-9377-569f912269dd,Area Of Ginery House B,,,,,,,,KD2304,eHA_Polio,Kaura,19023,Zaria,KD,Kaduna,7.702928139979008,11.049779950007519,
POINT,11.027716390016394,7.6220376900177484,004d3a68-5d51-4326-97b5-856bc7b39125,Gidan Lauje,,,,,,,,KD2301,eHA_Polio,Dutsen Abba,19023,Zaria,KD,Kaduna,7.6220376900177484,11.027716390016394,
POINT,11.078157090288471,7.285386930279401,004d4ed2-841b-442d-942c-b26472486a87,Maje,,,,,,,,KD0302,eHA_Polio,Galadimawa,19003,Giwa,KD,Kaduna,7.285386930279401,11.078157090288471,
POINT,10.958249889817182,8.105211810311857,004ff1d1-e8d8-48a3-94d2-baf71e0dff50,Rugar Musa Jae,,,,,,,,KD2111,eHA_Polio,Soba,19021,Soba,KD,Kaduna,8.105211810311857,10.958249889817182,
POINT,10.164115980240467,8.276032970376832,0053b019-4bfa-42e0-9d6e-de034152791d,Unguwan Ibrahim,,,,,,,,KD1402,eHA_Polio,Bital,19014,Kauru,KD,Kaduna,8.276032970376832,10.164115980240467,
POINT,10.547587469791324,7.560830830430575,00549dc5-d5f3-4184-a85f-b0835e973ded,Kan Rafi A,,,,,,,,KD0204,eHA_Polio,Kujama,19002,Chikun,KD,Kaduna,7.560830830430575,10.547587469791324,
POINT,9.87743413045365,7.542125279721063,0055da29-b46e-48f4-99c1-2a32e30f01ef,Alikuku,,,,,,,,KD0805,eHA_Polio,Dokwa,19008,Kachia,KD,Kaduna,7.542125279721063,9.87743413045365,
POINT,10.52297460006804,7.465673329775541,0058d941-f0b9-4425-b606-2adabbcd6556,Bathurst Street,,,,,,,,KD0910,eHA_Polio,Unguwar Rimi,19009,Kaduna North,KD,Kaduna,7.465673329775541,10.52297460006804,
POINT,9.158440249931118,8.214314000441675,005c97e1-f148-411a-b68a-f4742836eb6c,Gidan Danfaro,,,,,,,,KD2011,eHA_Polio,Wasa,19020,Sanga,KD,Kaduna,8.214314000441675,9.158440249931118,
POINT,9.537222120295553,8.036984859954885,00614521-3113-4075-b57f-e7ea6ee33945,Yakubu Sunday,,,,,,,,KD0601,eHA_Polio,Chori,19006,Jaba,KD,Kaduna,8.036984859954885,9.537222120295553,
POINT,11.052750531025879,7.6020523064386225,00640b50-90d1-4f3b-8161-35de5adab073,Gidan Sarkin Yaki,,,,,,,,KD2301,eHA_Polio,Dutsen Abba,19023,Zaria,KD,Kaduna,7.6020523064386225,11.052750531025879,
POINT,10.703075490438152,6.807731879735229,00671759-d004-4a6f-ad7e-7cd3df41e8e1,Ungwan Lukman,,,,,,,,KD0206,eHA_Polio,Kuriga,19002,Chikun,KD,Kaduna,6.807731879735229,10.703075490438152,
POINT,10.38422081979138,7.547509230379205,0069e564-7fb0-49b3-8b42-3eaaf12a38b1,Ruggan Alhaji Baba,,,,,,,,KD0204,eHA_Polio,Kujama,19002,Chikun,KD,Kaduna,7.547509230379205,10.38422081979138,
POINT,9.712285560242947,8.322290109806374,006e0001-276b-4502-9f45-ee42a15d9c90,Aduwan Gida,,,,,,,,KD2205,eHA_Polio,Madakiya,19022,Zangon Kataf,KD,Kaduna,8.322290109806374,9.712285560242947,
POINT,11.095218279880726,7.702224399500892,006e07df-db60-4e44-bf9d-0da8c9369849,Old Quarters,,,,,,,,KD2309,eHA_Polio,Tukur Tukur,19023,Zaria,KD,Kaduna,7.702224399500892,11.095218279880726,
POINT,10.709105369535166,6.624436140194405,006eeb4e-61d0-43bc-a4c6-33cea1e199ca,Kwaga 1,,,,,,,,KD0101,eHA_Polio,Gayam,19001,Birnin Gwari,KD,Kaduna,6.624436140194405,10.709105369535166,
POINT,9.637831719655082,8.128161889905357,00761400-0d2b-4a7e-a868-c0888bb81c04,Unguwan Jaba,,,,,,,,KD2207,eHA_Polio,Unguwan Rimi,19022,Zangon Kataf,KD,Kaduna,8.128161889905357,9.637831719655082,
POINT,9.727162070350857,8.397044359598397,007a251b-4593-4dba-a26d-197abdf26e5e,Unguwar Bidoli,,,,,,,,KD2206,eHA_Polio,Unguwar Gaya,19022,Zangon Kataf,KD,Kaduna,8.397044359598397,9.727162070350857,
POINT,10.546555480090149,7.453505649508145,007d34f5-8074-445b-83c5-68527727b752,Sultan Close,,,,,,,,KD0911,eHA_Polio,Unguwar Sarki,19009,Kaduna North,KD,Kaduna,7.453505649508145,10.546555480090149,
POINT,11.313840510424257,7.3961664195488765,00800043-cd05-48a7-9232-0bfeec7fb416,Fulani Ori,,,,,,,,KD0303,eHA_Polio,Gangara,19003,Giwa,KD,Kaduna,7.3961664195488765,11.313840510424257,
POINT,10.477057771869738,7.645191287749526,00846f50-484b-4629-9fba-f917ca7948d6,Unguwar Dan Baki,,,,,,,,KD0204,eHA_Polio,Kujama,19002,Chikun,KD,Kaduna,7.645191287749526,10.477057771869738,
POINT,9.852460940485514,8.467273790315971,009129d1-b16c-4742-8232-2a1086e1de23,Unguwan Baba,,,,,,,,KD2208,eHA_Polio,Zaman Dabo,19022,Zangon Kataf,KD,Kaduna,8.467273790315971,9.852460940485514,
POINT,10.36282463025367,8.207513569821117,009600a5-feb8-4c58-8947-5ad237eae385,Rafin Rimi Unguwar Kudu,,,,,,,,KD1409,eHA_Polio,Kwassam,19014,Kauru,KD,Kaduna,8.207513569821117,10.36282463025367,
POINT,11.281352220350016,7.596074765377182,00967813-c303-4742-80cb-ce245c8b2d63,Gidan Tulu,,,,,,,,KD0301,eHA_Polio,Danmahawayi,19003,Giwa,KD,Kaduna,7.596074765377182,11.281352220350016,
POINT,10.958795153187623,7.640515754572732,0096c786-1eed-4150-bcff-86f9b30e6914,Katsinawa Dumbi,,,,,,,,KD0412,eHA_Polio,Zangon Aya,19004,Igabi,KD,Kaduna,7.640515754572732,10.958795153187623,
POINT,11.116027201019449,7.6044909670956145,0098c489-d5ed-42eb-978b-614512e619d6,Gidan Galadima,,,,,,,,KD0308,eHA_Polio,Panhauya,19003,Giwa,KD,Kaduna,7.6044909670956145,11.116027201019449,
POINT,11.122219552226852,7.609110579234425,009e7658-1a81-4e0d-b26a-bcc43ce2b8d9,Dorayi,,,,,,,,KD0308,eHA_Polio,Panhauya,19003,Giwa,KD,Kaduna,7.609110579234425,11.122219552226852,
POINT,10.342680239566505,8.545778439656203,00a229b1-7c03-4a2f-aa8e-792e34d91097,Rugar Malam Muhammadu,,,,,,,,KD1708,eHA_Polio,Lere,19017,Lere,KD,Kaduna,8.545778439656203,10.342680239566505,
POINT,11.100200620266037,7.702675589807427,00a41176-4cf1-42ec-874e-14df09050ea8,Anguwan Fulani,,,,,,,,KD2309,eHA_Polio,Tukur Tukur,19023,Zaria,KD,Kaduna,7.702675589807427,11.100200620266037,
POINT,11.161221589726892,7.653259610231601,00a5261e-770a-4f3e-9014-1df54757c91e,Layin Tinau,,,,,,,,KD1909,eHA_Polio,Samaru,19019,Sabon Gari,KD,Kaduna,7.653259610231601,11.161221589726892,
POINT,9.426010009732181,8.187760830400066,00a5ea33-2f6c-4104-a1ea-ce3682ba126e,Unguwan Tambaya,,,,,,,,KD0701,eHA_Polio,Asso,19007,Jema'A,KD,Kaduna,8.187760830400066,9.426010009732181,
POINT,11.05364640963461,7.679589600121574,00a6fc2d-8762-44dd-a0e5-f5f1674bb7a5,Gwargwaje,,,,,,,,KD2305,eHA_Polio,Kufena,19023,Zaria,KD,Kaduna,7.679589600121574,11.05364640963461,
POINT,11.34110223994736,7.382543130292447,00a82a61-280c-4a99-9bc8-44f077ff2bec,Ungwar Tafida B,,,,,,,,KD0303,eHA_Polio,Gangara,19003,Giwa,KD,Kaduna,7.382543130292447,11.34110223994736,
POINT,10.67760910013493,6.288194629734107,00abe9f5-558e-4a89-bbbc-a5c14a3511a8,Chikwarba Anguwan Sule Magani,,,,,,,,KD0102,eHA_Polio,Kakangi,19001,Birnin Gwari,KD,Kaduna,6.288194629734107,10.67760910013493,
POINT,11.50680669953573,8.095741339877122,00ae35a8-97fb-45ce-80f5-6bf38734cf04,Gidan Wake,,,,,,,,KD0506,eHA_Polio,Paki,19005,Ikara,KD,Kaduna,8.095741339877122,11.50680669953573,
POINT,10.208435640353628,8.094033469716692,00b4a553-81e5-4636-833b-0d53b1a63d30,Tilde Bayero,,,,,,,,KD2203,eHA_Polio,Ikulu,19022,Zangon Kataf,KD,Kaduna,8.094033469716692,10.208435640353628,
POINT,10.317498860456965,7.385426850251804,00b5c4e0-3ebd-4417-a7da-6eac5710fc20,Layin Liman,,,,,,,,KD0203,eHA_Polio,Kakau,19002,Chikun,KD,Kaduna,7.385426850251804,10.317498860456965,
POINT,10.235830519967124,8.383590230456946,00b5ec0e-d89a-41d9-a035-f143ac7e4889,Gaparun,,,,,,,,KD1405,eHA_Polio,Geshere,19014,Kauru,KD,Kaduna,8.383590230456946,10.235830519967124,
POINT,10.245929459828915,7.038299340394985,00b7073d-de01-4bcc-94b3-bff6e897a517,Dakunu,,,,,,,,KD0201,eHA_Polio,Chikun,19002,Chikun,KD,Kaduna,7.038299340394985,10.245929459828915,
POINT,10.762498589813333,7.780097090411687,00bb2b1a-4493-41c6-a9d5-c06bcbddd894,Gidan Rimi,,,,,,,,KD0405,eHA_Polio,Igabi,19004,Igabi,KD,Kaduna,7.780097090411687,10.762498589813333,
POINT,10.456675600021015,7.445325709950282,00bbbf2f-7b15-495d-98fa-12a0facd2ca7,Galadima Street B,,,,,,,,KD0207,eHA_Polio,Narayi,19002,Chikun,KD,Kaduna,7.445325709950282,10.456675600021015,
POINT,11.063170190105552,7.675978699668121,00bcd849-793d-4e7a-bd2a-70efe66b152d,Anguwan Malam Shuaibu 2,,,,,,,,KD2305,eHA_Polio,Kufena,19023,Zaria,KD,Kaduna,7.675978699668121,11.063170190105552,
POINT,10.431353779815993,7.436203369752093,00bdb16b-96a3-4e70-bca3-2bc97cc9b229,Gbagyi Villa Joel Bala,,,,,,,,KD0212,eHA_Polio,Yelwa,19002,Chikun,KD,Kaduna,7.436203369752093,10.431353779815993,
POINT,9.670697939986098,8.383558960435664,00bf5efe-df06-4d34-932c-11d707b65e36,Unguwa Daniel Sabi,,,,,,,,KD1308,eHA_Polio,Malagum,19013,Kaura,KD,Kaduna,8.383558960435664,9.670697939986098,
POINT,10.541096070380775,7.385865289549713,00c09dd8-44b5-4d60-bb18-6199061f5215,Usman Mai Kaji,,,,,,,,KD0409,eHA_Polio,Rigasa,19004,Igabi,KD,Kaduna,7.385865289549713,10.541096070380775,
POINT,10.506410036813236,7.399682816938082,00c28781-0593-49a3-ab15-df7e26f5385e,Dalhatu Maccido Close,,,,,,,,KD1006,eHA_Polio,Sabon Gari North,19010,Kaduna South,KD,Kaduna,7.399682816938082,10.506410036813236,
POINT,9.479223529888259,7.905653549721421,00c57888-5154-49e2-9fdc-e955488356e5,Rugar Galemu Kushamfa A,,,,,,,,KD1107,eHA_Polio,Katugal,19011,Kagarko,KD,Kaduna,7.905653549721421,9.479223529888259,
POINT,11.209905778805535,8.045917735024318,00c6a626-7547-4a0a-adb1-e46c48f0da65,Rugar Chediya,,,,,,,,KD1805,eHA_Polio,Gubuchi,19018,Makarfi,KD,Kaduna,8.045917735024318,11.209905778805535,
POINT,10.679362470326282,7.496712649865287,00cdb897-65dd-4094-8f3e-2a5a848ce14a,Unguwan Mai Shanu,,,,,,,,KD0407,eHA_Polio,Kwarau,19004,Igabi,KD,Kaduna,7.496712649865287,10.679362470326282,
POINT,10.509324479793463,7.233898680295567,00cfdbe5-7d9e-49ee-86d2-980927bf3f04,Bare Bari,,,,,,,,KD0208,eHA_Polio,Nassarawa,19002,Chikun,KD,Kaduna,7.233898680295567,10.509324479793463,
POINT,10.528900750094579,7.401636760265717,00d462cc-6c54-4b4d-9311-0e8b957b5840,Zuma Road,,,,,,,,KD1013,eHA_Polio,Unguwan Sanusi,19010,Kaduna South,KD,Kaduna,7.401636760265717,10.528900750094579,
POINT,10.539610800371577,7.380481486891654,00d5d5ed-2015-435e-af43-272e1d8d34c7,Gidan Balarabe Idris Jigo,,,,,,,,KD0409,AFP_GRID,Rigasa,19004,Igabi,KD,Kaduna,7.380481486891654,10.539610800371577,
POINT,11.037508319669541,7.781314620238959,00d9253f-5a4b-465c-9f6e-5204d2ade4c5,Gidan Mahauta Bogari,,,,,,,,KD2313,eHA_Polio,Wuciciri,19023,Zaria,KD,Kaduna,7.781314620238959,11.037508319669541,
POINT,10.50741152049369,7.416242390189552,00dc49aa-4005-4a10-ba18-c7e5bb9f8f3c,Hausawa By Kwanar Lami,,,,,,,,KD1010,eHA_Polio,Tudun Wada South,19010,Kaduna South,KD,Kaduna,7.416242390189552,10.50741152049369,
POINT,10.707990029777363,7.747725870416957,00de891c-59ad-40cc-a05d-4d3111cb59bb,Layin Tsamiya,,,,,,,,KD0403,eHA_Polio,Fanshanu,19004,Igabi,KD,Kaduna,7.747725870416957,10.707990029777363,
POINT,9.696892669784233,7.449602959856463,00e08eaf-c209-42b4-a4a6-1a6b4b6eb1cf,Unguwan Wandala,,,,,,,,KD0809,eHA_Polio,Katari,19008,Kachia,KD,Kaduna,7.449602959856463,9.696892669784233,
POINT,9.48720156030896,8.023877310048874,00e3f8ec-2864-47fd-89a1-15e88f6d494b,Unguwar Yakubu John,,,,,,,,KD0607,eHA_Polio,Nok,19006,Jaba,KD,Kaduna,8.023877310048874,9.48720156030896,
POINT,10.217020785186833,8.269515094948247,00e4b8dd-82c7-4d63-b9ad-4d7120d703bd,Kipego,,,,,,,,KD1402,eHA_Polio,Bital,19014,Kauru,KD,Kaduna,8.269515094948247,10.217020785186833,
POINT,10.987020720365592,7.831632370427485,00e90042-5938-4eb7-a492-ed371bc971bd,Gagari,,,,,,,,KD2105,eHA_Polio,Kinkiba,19021,Soba,KD,Kaduna,7.831632370427485,10.987020720365592,
POINT,11.068423009674632,7.953251500061981,00e9acab-be87-4f0a-9ea8-51c1be6b33b9,Anguwar Kanawa B,,,,,,,,KD2104,eHA_Polio,Gimba,19021,Soba,KD,Kaduna,7.953251500061981,11.068423009674632,
POINT,10.544794212893464,7.364669523148166,00ea7c0a-0e16-4fc1-9860-6d2c4e243e60,Ladi Wudil,,,,,,,,KD0409,eHA_Polio,Rigasa,19004,Igabi,KD,Kaduna,7.364669523148166,10.544794212893464,
POINT,11.124746779943962,7.731504270395135,00ef0d41-e9ba-4ff5-af45-5f057fc310fc,Layin Mangwarori,,,,,,,,KD1908,eHA_Polio,Muchiya,19019,Sabon Gari,KD,Kaduna,7.731504270395135,11.124746779943962,
POINT,10.155312742259127,8.598407022414847,00ef4161-f936-45d4-bc5d-d4366edaddb8,Unguwan Kero Bakin Kogi,,,,,,,,KD1703,eHA_Polio,Garu Mariri,19017,Lere,KD,Kaduna,8.598407022414847,10.155312742259127,
POINT,9.311700490064254,8.033834539814393,00f083d6-fd39-45e6-a696-7022134ab3a8,Unguwan Wella,,,,,,,,KD0703,eHA_Polio,Barde,19007,Jema'A,KD,Kaduna,8.033834539814393,9.311700490064254,
POINT,10.535488889570956,7.394336100305225,00f1a4de-fe04-4e55-81e6-c77305d687b7,Sokoto Road,,,,,,,,KD0409,eHA_Polio,Rigasa,19004,Igabi,KD,Kaduna,7.394336100305225,10.535488889570956,
POINT,10.998398090095975,7.598146149784611,00f2834d-c914-423c-a376-0eda5f4a852d,Kudon Dikko Unguwar Liman,,,,,,,,KD0406,eHA_Polio,Kerawa,19004,Igabi,KD,Kaduna,7.598146149784611,10.998398090095975,
POINT,10.379511209591442,7.626209479852321,00f976b2-a21a-40d9-bf8f-e2fc4d615bbe,Janwuria 1,,,,,,,,KD1202,eHA_Polio,Buda,19012,Kajuru,KD,Kaduna,7.626209479852321,10.379511209591442,
POINT,10.622791075888642,8.08677478478478,00fbb988-f0a0-4a07-b037-87fa6437c535,Unguwan Munkaila,,,,,,,,KD1410,eHA_Polio,Makami,19014,Kauru,KD,Kaduna,8.08677478478478,10.622791075888642,
POINT,11.113780000492568,6.987813333092106,00fc303f-bba3-44da-8359-66d1f0430043,Rugar Jaae,,,,,,,,KD0109,eHA_Polio,Kutemeshi,19001,Birnin Gwari,KD,Kaduna,6.987813333092106,11.113780000492568,
POINT,9.450973409693631,7.304664570377668,01012b57-8731-4071-aaa4-f5048a1c7fd0,Chigomi Unguwar Sarki,,,,,,,,KD1102,eHA_Polio,Iddah,19011,Kagarko,KD,Kaduna,7.304664570377668,9.450973409693631,
POINT,10.442821039607509,8.271698350431677,01033ab4-3d21-45b2-b0f7-f08b43c6e39f,Fulanin Gumbari A,,,,,,,,KD1409,eHA_Polio,Kwassam,19014,Kauru,KD,Kaduna,8.271698350431677,10.442821039607509,
POINT,10.30574599247143,8.784616469935429,010431a0-8c99-4b58-ba99-548485aa06f2,Rugan Alhaji Mudi,,,,,,,,KD1701,eHA_Polio,Abadawa,19017,Lere,KD,Kaduna,8.784616469935429,10.30574599247143,
POINT,9.66308844981586,8.521000709820896,01048e26-c781-42e3-9eb2-decf12224430,Unguwar Ibrahim Nasamu,,,,,,,,KD1309,eHA_Polio,Manchok,19013,Kaura,KD,Kaduna,8.521000709820896,9.66308844981586,
POINT,11.162650479697731,7.8636576801872025,010630a7-b2e5-41b7-83c1-57560ed79583,Anguwan Nuhu,,,,,,,,KD2106,eHA_Polio,Kwasallo,19021,Soba,KD,Kaduna,7.8636576801872025,11.162650479697731,
POINT,10.899537390924763,8.105797933710107,0109024e-b299-4752-870c-730c44f33796,Rigar Haruna,,,,,,,,KD2108,eHA_Polio,Rahama,19021,Soba,KD,Kaduna,8.105797933710107,10.899537390924763,
POINT,10.764333980060428,7.98762956042026,010984c1-e22a-4290-9887-4170643ebaf0,Kwankawa,,,,,,,,KD2102,eHA_Polio,Gamagira,19021,Soba,KD,Kaduna,7.98762956042026,10.764333980060428,
POINT,10.452291950042536,7.401159979941724,010ab4bf-c8a6-4393-b71a-d38e44e846e8,Unguwan Wakili 2,,,,,,,,KD1003,eHA_Polio,Kakuri Gwari,19010,Kaduna South,KD,Kaduna,7.401159979941724,10.452291950042536,
POINT,10.430008459901956,7.434187690382544,010bf254-6293-4011-a23a-a6f96710a435,Gbagyi Villa Luka Barde,,,,,,,,KD0212,eHA_Polio,Yelwa,19002,Chikun,KD,Kaduna,7.434187690382544,10.430008459901956,
POINT,11.068354929628356,7.714201399638682,010ed54c-18d5-465d-991f-a36aa596c5e1,Layin Malam Atiku Area,,,,,,,,KD2306,eHA_Polio,Kwarbai A,19023,Zaria,KD,Kaduna,7.714201399638682,11.068354929628356,
POINT,10.502929200448136,7.438954269621206,011059f4-aa8b-466d-8f31-d77d16b20689,Tanko Ayuba Road,,,,,,,,KD0904,eHA_Polio,Kabala,19009,Kaduna North,KD,Kaduna,7.438954269621206,10.502929200448136,
POINT,10.029545079805871,8.334795470303163,0114d63c-8439-49d2-aef2-8a3b9fe7185c,Unguwar Jika,,,,,,,,KD1402,eHA_Polio,Bital,19014,Kauru,KD,Kaduna,8.334795470303163,10.029545079805871,
POINT,10.634504549847406,7.47562512953732,0115a361-8e25-4bc2-95b5-a508b95a2add,Nasarawa,,,,,,,,KD0408,eHA_Polio,Rigachikun,19004,Igabi,KD,Kaduna,7.47562512953732,10.634504549847406,
POINT,9.807014909607119,7.574995470054773,011860dc-4526-4ffa-a620-07cfe5ceabce,Kula Da Bako,,,,,,,,KD0805,eHA_Polio,Dokwa,19008,Kachia,KD,Kaduna,7.574995470054773,9.807014909607119,
POINT,10.648213690162152,7.477180949594413,011c5b70-8021-4f11-a8f1-3175faf10b9a,Bature Garban Garba,,,,,,,,KD0408,eHA_Polio,Rigachikun,19004,Igabi,KD,Kaduna,7.477180949594413,10.648213690162152,
POINT,10.738759559683785,6.685989230016844,011c799e-20de-402f-9940-92835aa8e8b1,Rugar Saleh,,,,,,,,KD0101,eHA_Polio,Gayam,19001,Birnin Gwari,KD,Kaduna,6.685989230016844,10.738759559683785,
POINT,9.876472709800396,8.531211729758809,011d43f9-7fc0-4b55-9944-da9e9a4a4f36,Kurmin Risga Mangoro,,,,,,,,KD1401,eHA_Polio,Badurum,19014,Kauru,KD,Kaduna,8.531211729758809,9.876472709800396,
POINT,10.980776390122855,8.259549630177162,011da9ca-dcbc-46fd-8491-e2dfbad77e9f,Gidan Fulani Ibrahim,,,,,,,,KD1508,eHA_Polio,Mah,19015,Kubau,KD,Kaduna,8.259549630177162,10.980776390122855,
POINT,10.346925760451143,7.713201519959284,0126bdb9-ce29-4fb3-95f6-dbf77994dbef,Dogon Awo,,,,,,,,KD1207,eHA_Polio,Kufana,19012,Kajuru,KD,Kaduna,7.713201519959284,10.346925760451143,
POINT,10.532809879750687,7.461810540150964,01275405-6015-4056-bbe0-735395de31dc,Birnin Gwari Close,,,,,,,,KD0910,eHA_Polio,Unguwar Rimi,19009,Kaduna North,KD,Kaduna,7.461810540150964,10.532809879750687,
POINT,11.118899509971016,7.7312981502551,01283e5a-78ac-4735-9e89-07d82509200a,Layin Sharu Danlami,,,,,,,,KD1908,eHA_Polio,Muchiya,19019,Sabon Gari,KD,Kaduna,7.7312981502551,11.118899509971016,
POINT,10.440058789730642,8.69337950994418,0128f1b9-d400-40c6-9d39-643dafed1b44,Bio Kara,,,,,,,,KD1701,eHA_Polio,Abadawa,19017,Lere,KD,Kaduna,8.69337950994418,10.440058789730642,
POINT,10.234337339952617,7.907927020266129,01295df0-302d-4d14-acc9-fed48359d0a9,Unguwan Sarki,,,,,,,,KD1203,eHA_Polio,Idon,19012,Kajuru,KD,Kaduna,7.907927020266129,10.234337339952617,
POINT,10.661333422076382,7.757135061810061,012c88f3-4d08-4521-879a-8401450e0d87,Kabuwa Unguwan Shano,,,,,,,,KD0403,eHA_HamletBuster,Fanshanu,19004,Igabi,KD,Kaduna,7.757135061810061,10.661333422076382,
POINT,9.357636740275723,8.63093512951616,012d9c2e-7faa-4ad5-9bf0-b0becbeaf7d7,Unguwar Dagachin Mai Samari,,,,,,,,KD2004,eHA_Polio,Bokana,19020,Sanga,KD,Kaduna,8.63093512951616,9.357636740275723,
POINT,10.466938939994463,7.45108568986393,012ea2c5-db02-4f65-b089-250273cbb4bc,Lawal Kaita Road,,,,,,,,KD0207,eHA_Polio,Narayi,19002,Chikun,KD,Kaduna,7.45108568986393,10.466938939994463,
POINT,10.706936790061718,6.2929318099527904,01325332-563e-48ef-993a-ade21400fe1a,Kurgin Anguwan Sarki,,,,,,,,KD0102,eHA_Polio,Kakangi,19001,Birnin Gwari,KD,Kaduna,6.2929318099527904,10.706936790061718,
POINT,11.067466072024445,6.78746676596603,01326825-1fcb-4d39-b0a9-5cc9f3e29d5c,Junction Farin Ruwa,,,,,,,,KD0105,eHA_Polio,Magajin Gari 3,19001,Birnin Gwari,KD,Kaduna,6.78746676596603,11.067466072024445,
POINT,10.232842659937035,8.177610299503215,01333c3b-d5d9-42e7-ab22-eea65267173f,Kadage,,,,,,,,KD1402,eHA_Polio,Bital,19014,Kauru,KD,Kaduna,8.177610299503215,10.232842659937035,
POINT,10.330916188573383,8.268596848324307,01346b5a-412e-4770-b5c4-e6eaab401c12,Rugar Mohammadu,,,,,,,,KD1409,eHA_Polio,Kwassam,19014,Kauru,KD,Kaduna,8.268596848324307,10.330916188573383,
POINT,10.453106723596136,7.461082534656327,01372b62-e8a5-438d-942c-d8c3020c4bfe,Makabarta Street,,,,,,,,KD0211,eHA_Polio,Sabon Tasha,19002,Chikun,KD,Kaduna,7.461082534656327,10.453106723596136,
POINT,10.654121890176498,7.53631346977221,0137ee31-1c28-4be0-af4e-4cba03df069c,Sokwatawa,,,,,,,,KD0407,eHA_Polio,Kwarau,19004,Igabi,KD,Kaduna,7.53631346977221,10.654121890176498,
POINT,11.087583089692998,7.0200375499869665,0139d8ac-83b7-43c2-9215-32a4b2d1971c,Maikulu2,,,,,,,,KD0107,eHA_Polio,Damari,19001,Birnin Gwari,KD,Kaduna,7.0200375499869665,11.087583089692998,
POINT,10.646240329821353,7.474195759566101,013aaf06-1a0c-41c0-8b8c-7345f72ccaa4,Yusuf Buhari,,,,,,,,KD0408,eHA_Polio,Rigachikun,19004,Igabi,KD,Kaduna,7.474195759566101,10.646240329821353,
POINT,9.200341225400848,8.421278000063978,013c09bc-9459-4581-9ab6-da425f919e49,Rugar Ciroma,,,,,,,,KD2007,eHA_Polio,Nandu,19020,Sanga,KD,Kaduna,8.421278000063978,9.200341225400848,
POINT,10.478462189823972,7.381415509526278,013c2790-c63d-424c-b1e2-c9cc1d9dab45,Yerima Street,,,,,,,,KD0210,eHA_Polio,Sabon Gari Nassarawa,19002,Chikun,KD,Kaduna,7.381415509526278,10.478462189823972,
POINT,11.071097950492117,7.708596789830608,013c33b9-66ea-439c-abc1-66746f04ec2a,Layin Gidan Usman Tanimu,,,,,,,,KD2307,eHA_Polio,Kwarbai B,19023,Zaria,KD,Kaduna,7.708596789830608,11.071097950492117,
POINT,9.213240835165493,8.439172043222129,013c7f9c-c826-4388-81d5-c53366eac526,Numbu Gaza,,,,,,,,KD2007,eHA_Polio,Nandu,19020,Sanga,KD,Kaduna,8.439172043222129,9.213240835165493,
POINT,9.374289339590405,8.283881859709766,013e6a98-a2f9-488d-aeaf-b55fae826ad7,Dangwa B,,,,,,,,KD0706,eHA_Polio,Jagindi,19007,Jema'A,KD,Kaduna,8.283881859709766,9.374289339590405,
POINT,10.153504750030663,8.471706170327536,013edea0-7b92-4432-b495-f519787ca1c1,Unguwan Bitrus,,,,,,,,KD1703,eHA_Polio,Garu Mariri,19017,Lere,KD,Kaduna,8.471706170327536,10.153504750030663,
POINT,9.12854637161962,8.521097023886341,0141261d-1716-49de-a54a-4abf67853115,Amar Sarki,,,,,,,,KD2009,eHA_Polio,Ninzo South,19020,Sanga,KD,Kaduna,8.521097023886341,9.12854637161962,
POINT,9.586734349936819,8.381297979899443,01415064-4950-4426-8122-c4567b8e8716,Unguwar Buzuam,,,,,,,,KD1301,eHA_Polio,Agban,19013,Kaura,KD,Kaduna,8.381297979899443,9.586734349936819,
POINT,11.047238090280473,7.759610670492123,014485df-10fb-4f49-a0aa-04acc074c7df,Gidan Nababa Tudun Kusa,,,,,,,,KD2313,eHA_Polio,Wuciciri,19023,Zaria,KD,Kaduna,7.759610670492123,11.047238090280473,
POINT,10.873244360059914,8.250939720327153,0144d336-41cc-4ca2-97a3-288d0cff5c0d,Mai Yashin Makaranta,,,,,,,,KD1503,eHA_Polio,Dutsen Wai,19015,Kubau,KD,Kaduna,8.250939720327153,10.873244360059914,
POINT,10.529153580266382,7.745972750225803,0147a4e6-d989-4531-a9e3-d1f835bf0835,Rafin Turmi,,,,,,,,KD0404,eHA_Polio,Gwaraji,19004,Igabi,KD,Kaduna,7.745972750225803,10.529153580266382,
POINT,10.885951909694086,7.902477999563757,01485aea-ed23-4719-9053-25f470f832e7,Rigan Malam Ibrahim,,,,,,,,KD2105,eHA_Polio,Kinkiba,19021,Soba,KD,Kaduna,7.902477999563757,10.885951909694086,
POINT,9.917919779961721,7.435113070011255,014b41c1-e813-4d3d-bb85-45585a96adc6,Binin Doka,,,,,,,,KD0805,eHA_Polio,Dokwa,19008,Kachia,KD,Kaduna,7.435113070011255,9.917919779961721,
POINT,10.55550698017231,8.564009140043083,0157d570-8a12-4a25-990d-f7ce8d2e1c71,Kurmin Tsuntsu,,,,,,,,KD1705,eHA_Polio,Kayarda,19017,Lere,KD,Kaduna,8.564009140043083,10.55550698017231,
POINT,10.251039080300643,7.817784800018728,01584e11-de0d-4a65-b493-42f560349265,Tudu,,,,,,,,KD1201,eHA_Polio,Afogo,19012,Kajuru,KD,Kaduna,7.817784800018728,10.251039080300643,
POINT,11.088185820102524,6.750973150170353,01596e3d-22ba-470c-8609-ce53271e54b9,Rugan Saidu,,,,,,,,KD0105,eHA_Polio,Magajin Gari 3,19001,Birnin Gwari,KD,Kaduna,6.750973150170353,11.088185820102524,
POINT,11.41520709029811,7.985434909929097,015c7d38-9edc-4a8c-9c6c-622ef0cb1cef,Unguwar Talle,,,,,,,,KD0508,eHA_Polio,Rumi,19005,Ikara,KD,Kaduna,7.985434909929097,11.41520709029811,
POINT,10.453703310001458,7.4723637303213195,015e369a-bcb5-4448-bdae-f6c5257a4b72,Dariya Street,,,,,,,,KD0211,eHA_Polio,Sabon Tasha,19002,Chikun,KD,Kaduna,7.4723637303213195,10.453703310001458,
POINT,10.699210829812273,7.726486509985818,015fdac2-78a4-42e4-9cb1-1cdcc53b672c,Tugagari 1,,,,,,,,KD0403,eHA_Polio,Fanshanu,19004,Igabi,KD,Kaduna,7.726486509985818,10.699210829812273,
POINT,10.555106939900497,7.441448710316024,01636d42-31f2-4008-a25c-23bc8b39f688,Kaita Road,,,,,,,,KD0903,eHA_Polio,Hayin Banki,19009,Kaduna North,KD,Kaduna,7.441448710316024,10.555106939900497,
POINT,11.360272529972633,8.040160490112555,016488c1-8614-4ba5-9d62-75f62cf0bf5f,Unguwar Turaki,,,,,,,,KD1806,eHA_Polio,Gwanki,19018,Makarfi,KD,Kaduna,8.040160490112555,11.360272529972633,
POINT,9.916527940016067,7.499015650430067,0164dcff-b9e7-455c-879f-5cd1703f2d80,Gidan Liti Inluwo,,,,,,,,KD0805,eHA_Polio,Dokwa,19008,Kachia,KD,Kaduna,7.499015650430067,9.916527940016067,
POINT,10.508274460080031,7.472651249516673,0165abf2-808d-49dc-89bc-47e95e29423b,Banbansauro A,,,,,,,,KD0209,eHA_Polio,Rido,19002,Chikun,KD,Kaduna,7.472651249516673,10.508274460080031,
POINT,9.348160289836926,8.024435360428072,016773ce-0e41-4c73-a065-1cf954b4e22d,Unguwan James Makama,,,,,,,,KD0606,eHA_Polio,Nduya,19006,Jaba,KD,Kaduna,8.024435360428072,9.348160289836926,
POINT,10.485988524937738,8.75066136386448,0167c07e-9075-45af-ab87-c598d11a2768,Sabon Gari Jiggu,,,,,,,,KD1702,eHA_Polio,Dan Alhaji,19017,Lere,KD,Kaduna,8.75066136386448,10.485988524937738,
POINT,10.19394814951005,7.74021434031323,016a25e2-063c-4a14-83d7-96a292dc3a8b,Rugan Samaila,,,,,,,,KD1207,eHA_Polio,Kufana,19012,Kajuru,KD,Kaduna,7.74021434031323,10.19394814951005,
POINT,10.528171939599417,7.386111219716838,016b7320-9e52-4f39-975f-920b8ada43ce,Danmasani Road,,,,,,,,KD0409,eHA_Polio,Rigasa,19004,Igabi,KD,Kaduna,7.386111219716838,10.528171939599417,
POINT,9.371108222428973,7.295393533078425,016c4f15-f989-4818-8d31-dd21f3a1b813,Ungwan Rilwanu,,,,,,,,KD1102,eHA_Polio,Iddah,19011,Kagarko,KD,Kaduna,7.295393533078425,9.371108222428973,
POINT,9.523234319791527,7.568973109962883,016d341a-863f-4c9c-ad91-ccf956fe8a00,Sabon Iche A,,,,,,,,KD1106,eHA_Polio,Kagarko South,19011,Kagarko,KD,Kaduna,7.568973109962883,9.523234319791527,
POINT,10.541810529866211,7.3705301401301995,016e7acd-e9df-4e1e-a501-b3a524b6551d,Dalhatu Mori,,,,,,,,KD0409,eHA_Polio,Rigasa,19004,Igabi,KD,Kaduna,7.3705301401301995,10.541810529866211,
POINT,10.697726789803937,7.509982699881675,0171eb23-7f4c-44f8-b381-281b9b0abef0,Sabon Gari Yarmakau,,,,,,,,KD0407,eHA_Polio,Kwarau,19004,Igabi,KD,Kaduna,7.509982699881675,10.697726789803937,
POINT,9.701652370018223,8.55133563043205,0173471d-bab4-4412-9dc5-3d347341d95c,Ruga Bayero Gene,,,,,,,,KD1302,eHA_Polio,Bondong,19013,Kaura,KD,Kaduna,8.55133563043205,9.701652370018223,
POINT,10.110384857732697,8.489516699428975,01743e65-d8e9-423f-9459-1421f0804b27,Abuga,,,,,,,,KD1405,eHA_Polio,Geshere,19014,Kauru,KD,Kaduna,8.489516699428975,10.110384857732697,
POINT,11.178857059709344,7.835429120007234,017ae418-aa73-4dce-9bb2-32c42df8f5d6,Rugar Sani,,,,,,,,KD1607,eHA_Polio,Likoro,19016,Kudan,KD,Kaduna,7.835429120007234,11.178857059709344,
POINT,9.075110683312573,8.544176288567598,017ae52e-8ff5-479c-be95-b76dc4ba3485,Unguwa Dorowa Abu,,,,,,,,KD2009,eHA_Polio,Ninzo South,19020,Sanga,KD,Kaduna,8.544176288567598,9.075110683312573,
POINT,10.579437060431644,7.447061380129583,017ae825-b828-4b6f-bfc2-c788fa1debcd,Kafinsoli Road B,,,,,,,,KD0905,eHA_Polio,Kawo,19009,Kaduna North,KD,Kaduna,7.447061380129583,10.579437060431644,
POINT,10.483398910178266,6.269234829851769,017b327c-6384-499f-b8e2-f027fefad27e,Magajin Gari,,,,,,,,KD0106,eHA_Polio,Randagi,19001,Birnin Gwari,KD,Kaduna,6.269234829851769,10.483398910178266,
POINT,9.665699139589663,8.450038209605225,017c8dcb-bdbd-4a31-90ca-8c4f62ba0d85,Unguwan Bako Sunday,,,,,,,,KD1305,eHA_Polio,Kaura,19013,Kaura,KD,Kaduna,8.450038209605225,9.665699139589663,
POINT,9.679918100250802,7.951367819782092,017d2f73-84df-4a1c-a0f0-715c22234ae1,Bonjock 1,,,,,,,,KD0811,eHA_Polio,Kwaturu,19008,Kachia,KD,Kaduna,7.951367819782092,9.679918100250802,
POINT,10.462062359681056,7.461739190102492,017df049-0d96-4e6e-b42d-c4a7b99f9c64,Kubusu Close,,,,,,,,KD0211,eHA_Polio,Sabon Tasha,19002,Chikun,KD,Kaduna,7.461739190102492,10.462062359681056,
POINT,9.21701143672749,8.558246053127334,017f94b7-78cb-49cf-8132-91adf5c74242,Ungwan Kako,,,,,,,,KD2003,eHA_Polio,Ayu,19020,Sanga,KD,Kaduna,8.558246053127334,9.21701143672749,
POINT,10.286801539599537,8.595213220244773,01801c05-65ca-4ee6-9927-d7b5823fe26a,Unguwar Kaura,,,,,,,,KD1707,eHA_Polio,Lazuru Tuddai,19017,Lere,KD,Kaduna,8.595213220244773,10.286801539599537,
POINT,9.648139501658704,8.388446208756307,01802e5b-2f18-4459-b2ca-ff552cd14a1d,Andrew Yashim,,,,,,,,KD1308,eHA_Polio,Malagum,19013,Kaura,KD,Kaduna,8.388446208756307,9.648139501658704,
POINT,10.585676469671057,7.412012890315793,01834cc3-f243-4f2a-8f1c-988beba9de88,Mai Jama'a Road,,,,,,,,KD0401,eHA_Polio,Afaka,19004,Igabi,KD,Kaduna,7.412012890315793,10.585676469671057,
POINT,11.010280610169616,7.437382379553185,018381b2-18df-45fb-8622-adcf693fde6a,Rugar Alhaji Inuwa,,,,,,,,KD0310,eHA_Polio,Wazata,19003,Giwa,KD,Kaduna,7.437382379553185,11.010280610169616,
POINT,10.874955170222336,7.579915110397451,0183925c-e270-4dec-bb3f-20aa62a51065,Hayin Kasuwa,,,,,,,,KD0402,eHA_Polio,Birnin Yero,19004,Igabi,KD,Kaduna,7.579915110397451,10.874955170222336,
POINT,11.087327029519031,7.719995999575815,018d0670-70bb-4d3b-9e26-37ba0f4bfac0,Mahaukacin Gida,,,,,,,,KD2310,eHA_Polio,Tudun Wada,19023,Zaria,KD,Kaduna,7.719995999575815,11.087327029519031,
POINT,9.939614859702544,8.567362340321438,018dc79f-4320-4023-b472-669aa596e6d2,Unguwan Iliya Bitrus,,,,,,,,KD1403,eHA_Polio,Damakasuwa,19014,Kauru,KD,Kaduna,8.567362340321438,9.939614859702544,
POINT,9.423535680050975,8.5723859197347,01946b4b-56a8-4321-a272-b78fbde38dfa,Unguwan Mada Aboro,,,,,,,,KD2001,eHA_Polio,Aboro,19020,Sanga,KD,Kaduna,8.5723859197347,9.423535680050975,
POINT,9.959559010253656,8.623034860148323,0196c1a2-d908-412a-a0c6-e0529820f642,Unguwan Ibrahim,,,,,,,,KD1403,eHA_Polio,Damakasuwa,19014,Kauru,KD,Kaduna,8.623034860148323,9.959559010253656,
POINT,9.737277020223473,8.390094449876244,0196fee2-2994-41de-b1f6-6982cea09522,Unguwar Yakubu Madaki,,,,,,,,KD2206,eHA_Polio,Unguwar Gaya,19022,Zangon Kataf,KD,Kaduna,8.390094449876244,9.737277020223473,
POINT,10.313940360039112,7.384282020473961,019aaca8-a393-463a-a235-b0d7e8c28728,Layin Mai Lafiya,,,,,,,,KD0203,eHA_Polio,Kakau,19002,Chikun,KD,Kaduna,7.384282020473961,10.313940360039112,
POINT,10.443002299730665,7.463190370088455,019bd254-dcde-4054-982d-4c1a6f8e15ec,Zitti By Galadima Road,,,,,,,,KD0211,eHA_Polio,Sabon Tasha,19002,Chikun,KD,Kaduna,7.463190370088455,10.443002299730665,
POINT,11.235430005148032,7.571590067740999,019c1ad5-4d2e-4f75-b139-f99c6ea5dfb7,Unguwan Mai Kifi Salanken,,,,,,,,KD0309,eHA_Polio,Shika,19003,Giwa,KD,Kaduna,7.571590067740999,11.235430005148032,
POINT,9.603589660389218,8.384122369818499,019d95e1-993f-4295-acf9-09830f1077cb,Unguwan David Didam,,,,,,,,KD1307,eHA_Polio,Kukum,19013,Kaura,KD,Kaduna,8.384122369818499,9.603589660389218,
POINT,9.838719380148802,8.445334720409392,019e5c40-7c3f-4646-b355-07bc4dcf081c,Unguwan Dawakai,,,,,,,,KD2208,eHA_Polio,Zaman Dabo,19022,Zangon Kataf,KD,Kaduna,8.445334720409392,9.838719380148802,
POINT,10.814115419884558,7.5283543703643545,019ec0fb-725e-4596-a34c-e66ec29c6f04,Kanzauren Dan Galadima,,,,,,,,KD0410,eHA_Polio,Sabon Birnin,19004,Igabi,KD,Kaduna,7.5283543703643545,10.814115419884558,
POINT,10.656240179615736,6.542964519838279,019f9ac5-b1da-41b0-81fd-4cbd21506a01,Anguwan Sule Maimai,,,,,,,,KD0103,eHA_Polio,Magajin Gari 1,19001,Birnin Gwari,KD,Kaduna,6.542964519838279,10.656240179615736,
POINT,11.077863530089019,7.711007170468349,01a487db-5178-4f65-86bf-64e086b08c0a,Garba Kofa Layin Gidan Mallam Audu Ganuwa,,,,,,,,KD2307,eHA_Polio,Kwarbai B,19023,Zaria,KD,Kaduna,7.711007170468349,11.077863530089019,
POINT,11.124992350110801,7.734842299663171,01a4a819-4fdb-40f2-8f15-6ad2d42f6955,Layin Malam Saminu,,,,,,,,KD1908,eHA_Polio,Muchiya,19019,Sabon Gari,KD,Kaduna,7.734842299663171,11.124992350110801,
POINT,9.38093689010708,7.965369290295428,01a5b9b0-1fc5-496e-8392-e89126e5f274,Unguwan Ayet Jenjem,,,,,,,,KD0606,eHA_Polio,Nduya,19006,Jaba,KD,Kaduna,7.965369290295428,9.38093689010708,
POINT,9.700651880338398,8.378268009840724,01a99d5a-38ba-4f95-b799-1e2cacc7cab1,Unguwan Benedict Michael,,,,,,,,KD1308,eHA_Polio,Malagum,19013,Kaura,KD,Kaduna,8.378268009840724,9.700651880338398,
POINT,11.019329710318004,7.612695860670442,01ab11e5-8707-427b-9322-10f128b9b4d7,Kasuwan Dutse B,,,,,,,,KD2301,eHA_Polio,Dutsen Abba,19023,Zaria,KD,Kaduna,7.612695860670442,11.019329710318004,
POINT,10.03323339031192,7.752420069606444,01ac268f-8d47-4403-8ded-7ef6aa097176,Rugan Haruna,,,,,,,,KD1208,eHA_Polio,Maro,19012,Kajuru,KD,Kaduna,7.752420069606444,10.03323339031192,
POINT,9.863047259678467,8.27533290990118,01bba6ee-5723-4d25-bdc2-2d7a27c7e3cd,Rugar Waje,,,,,,,,KD2202,eHA_Polio,Gora,19022,Zangon Kataf,KD,Kaduna,8.27533290990118,9.863047259678467,
POINT,10.521758180241534,7.424028560479883,01bbfa33-c1b7-41aa-aaef-aec0ce0529ca,Malunfashi Road B,,,,,,,,KD1008,eHA_Polio,Tudun Nupawa,19010,Kaduna South,KD,Kaduna,7.424028560479883,10.521758180241534,
POINT,11.179385310068312,7.715164340292972,01bc6502-2dd1-45e8-89c9-3c185178ee6a,Gyatta,,,,,,,,KD1904,eHA_Polio,Dogarawa,19019,Sabon Gari,KD,Kaduna,7.715164340292972,11.179385310068312,
POINT,9.617583659897491,8.410620409822684,01bd801c-de52-4fbc-9f9f-d6e0e4e70356,Unguwar Bodam,,,,,,,,KD1306,eHA_Polio,Kpak,19013,Kaura,KD,Kaduna,8.410620409822684,9.617583659897491,
POINT,9.622872000490645,8.408133110132667,01c7eb27-ac40-4f85-ba47-406b0b0aa4eb,Unguwar Uzah Tuwat,,,,,,,,KD1306,eHA_Polio,Kpak,19013,Kaura,KD,Kaduna,8.408133110132667,9.622872000490645,
POINT,11.36455378988154,8.053118220916701,01cc09b0-44ea-4fea-8f47-f90576d1947d,Bakutaje 2,,,,,,,,KD1806,eHA_Polio,Gwanki,19018,Makarfi,KD,Kaduna,8.053118220916701,11.36455378988154,
POINT,9.711462149683484,8.573731599649022,01cde42d-b219-4273-b3ff-c11f220749da,John Mally,,,,,,,,KD1302,eHA_Polio,Bondong,19013,Kaura,KD,Kaduna,8.573731599649022,9.711462149683484,
POINT,11.122720209567035,7.739431749781488,01d31852-d19a-4654-870b-c59c59f98a61,Kwari,,,,,,,,KD1908,eHA_Polio,Muchiya,19019,Sabon Gari,KD,Kaduna,7.739431749781488,11.122720209567035,